{"la_fourchette_deals":[{"resaurant_name":"Le Chiberta","id_restaurant":"2828","chef":"Stéphane Laruelle","name_of_deal":"Menu Découverte 110€","deal_description":"Ce menu en Accord Mets et Vins comprend : \n\n-Amuse-bouche\n-Entrée\n-Plat poisson \n-Plat viande\n-Pré-Dessert\n-Dessert\n****\n-3 Verres de vin blanc ou rouge\n-Eau minérale, café inclus","stars":"1 étoile","address":"3 Rue Arsène Houssaye","city":"Paris 08","zipcode":"75008"},{"resaurant_name":"Maison Rostang","id_restaurant":"405","chef":"Nicolas Beaumann","name_of_deal":"Menu Prestige 115€ Tout Compris, le midi !","deal_description":"Ce menu comprend :\nApéritif au Champagne + Entrée + Plat + Dessert + Mignardises + Vin + Eau + Café","stars":"2 étoiles","address":"20 rue Rennequin","city":"Paris","zipcode":"75017"},{"resaurant_name":"Maison Rostang","id_restaurant":"405","chef":"Nicolas Beaumann","name_of_deal":"Menu Prestige 195€ Tout Compris, le soir !","deal_description":"Ce menu comprend : \nApéritif + 2 Entrées + 2 Plats + 2 Desserts + Mignardises + Vin + Eau + Café/Thé + un livre de recettes Best Of Maison Rostang dédicacé par le chef","stars":"2 étoiles","address":"20 rue Rennequin","city":"Paris","zipcode":"75017"},{"resaurant_name":"Lasserre","id_restaurant":"250","chef":"","name_of_deal":"Menu Mardis Gourmands 150€","deal_description":"This set menu includes:","stars":"1 étoile","address":"17 Avenue F. -D. -Roosevelt","city":"Paris 08","zipcode":"75008"},{"resaurant_name":"Mavrommatis","id_restaurant":"5727","chef":"Andréas MAVROMMATIS","name_of_deal":"-20% off the \"à la carte\" menu!","stars":"1 étoile","address":"42 rue Daubenton","city":"Paris 05","zipcode":"75005"},{"resaurant_name":"Qui plume la Lune","id_restaurant":"11295","chef":"Jacky Ribault","name_of_deal":"Menu lunch prestige 90€ tout compris","deal_description":"Ce menu comprend au choix :\n- 2 Plats + Dessert + 1 coupe de champagne + 2 verres de vin + eau et café à 90€ en accord mets et vin.","stars":"1 étoile","address":"50 r. Amelot","city":"Paris 11","zipcode":"75011"},{"resaurant_name":"Au Trou Gascon","id_restaurant":"69375","chef":"Clément THOUVENOT","name_of_deal":"Menu Gourmands 89€","deal_description":"This set menu includes:","stars":"1 étoile","address":"40 r. Taine","city":"Paris 12","zipcode":"75012"},{"resaurant_name":"Penati al Baretto","id_restaurant":"36448","chef":"Alberico Penati","name_of_deal":"-20% off the \"à la carte\" menu!","stars":"1 étoile","address":"9 rue Balzac","city":"Paris 08","zipcode":"75008"},{"resaurant_name":"Manoir de la Boulaie","id_restaurant":"3485","chef":"Laurent Saudeau","name_of_deal":"-20% off the \"à la carte\" menu","stars":"2 étoiles","address":"33 rue Chapelle St-Martin","city":"HAUTE-GOULAINE","zipcode":"44115"},{"resaurant_name":"La Grande Cascade","id_restaurant":"122","chef":"Frédéric Robert","name_of_deal":"-40% off the \"à la carte\" menu","stars":"1 étoile","address":"Carrefour de Longchamp","city":"Paris","zipcode":"75016"},{"resaurant_name":"1912","id_restaurant":"60777","chef":"Le chef Johan THYRIOT","name_of_deal":"20% off food","deal_description":"","stars":"1 étoile","address":"bd de la Cahotte","city":"Trouville-sur-Mer","zipcode":"14360"},{"resaurant_name":"Pierre Orsi","id_restaurant":"12900","chef":"Pierre Orsi","name_of_deal":"Menu Mardis Gourmands 150€","deal_description":"This set menu includes:","stars":"1 étoile","address":"Place Kléber","city":"Lyon 06","zipcode":"69006"},{"resaurant_name":"Yam'Tcha","id_restaurant":"346045","chef":"Adeline Grattard","name_of_deal":"-20% off the \"à la carte\" menu!","stars":"1 étoile","address":"121 r. St-Honoré","city":"Paris","zipcode":"75001"},{"resaurant_name":"Benoit","id_restaurant":"25896","chef":"Fabienne Eymard","name_of_deal":"Menu Mardis Gourmands 125€","deal_description":"This set menu includes:","stars":"1 étoile","address":"20 Rue St-Martin","city":"Paris 04","zipcode":"75004"},{"resaurant_name":"Dominique Bouchet","id_restaurant":"310829","chef":"Dominique Bouchet","name_of_deal":"-20% on « MENU AVEC SAKE », or 120,00 € instead of 150,00 €!","deal_description":"This set menu includes:Starter + 2nd Starter + Main course + 2nd course + Dessert","stars":"1 étoile","address":"11 Rue Treilhard","city":"Paris","zipcode":"75008"},{"resaurant_name":"La Fourchette du Printemps","id_restaurant":"5020","chef":"Nicolas Mouton","name_of_deal":"Menu Gourmands 79€","deal_description":"Ce menu comprend :  \n- Apéritif (Kir vin blanc)\n- Mise en bouche\n- Entrée au choix à la carte\nun verre de vin avec l’entrée\n- Plat au choix à la carte\nun verre de vin avec le plat\n- Pré-dessert\n- Dessert au choix à la carte\n- Vins :\nVin blanc : Sancerre 2014 Domaine de la Rossignole\nVin rouge : Ventoux 2014 « Roi Fainéant » La Ferme Saint Pierre.\n- 1/2 bouteille d'Eau minérale\n- Café ou Thé","stars":"1 étoile","address":"30 r. du Printemps","city":"Paris","zipcode":"75017"},{"resaurant_name":"Le Meurice Alain Ducasse","id_restaurant":"275","chef":"Alain Ducasse et Jocelyn Herland","name_of_deal":"Menu Prestige 225€","deal_description":"This set menu includes:","stars":"2 étoiles","address":"228 Rue de Rivoli","city":"Paris","zipcode":"75001"}]}