{"restaurants":[{"name":"Le Puits du Trésor","star":"1 étoile","chef":"Jean-Marc Boyer","address":"21 rte des Quatre-Châteaux","city":"Lastours","zipcode":"11600"},{"name":"Girardin","star":"1 étoile","chef":"Éric Girardin","address":"19 Rue des Têtes","city":"Colmar","zipcode":"68000"},{"name":"Le 7ème Continent","star":"1 étoile","chef":"Laurent Haller","address":"35 av. Gén. -de-Gaulle","city":"Rixheim","zipcode":"68170"},{"name":"Le 1947","star":"3 étoiles","chef":"Yannick Alléno","address":"Cheval Blanc Courchevel - Le Jardin Alpin","city":"Courchevel 1850","zipcode":"73120"},{"name":"Le Chabichou","star":"2 étoiles","chef":"Michel Rochedy et Stéphane Buron","address":"90 Route des Chenus","city":"Courchevel 1850","zipcode":"73120"},{"name":"Nakatani","star":"1 étoile","chef":"Shinsuke Nakatani","address":"27 Rue Pierre Leroux","city":"PARIS","zipcode":"75007"},{"name":"Le Champ des Lunes","star":"1 étoile","chef":"Jérôme FAURE","address":"route de Roquefraîche","city":"Lauris","zipcode":"84360"},{"name":"La Table de Chaintré","star":"1 étoile","chef":"Sébastien Grospellier","address":"72 pl. du Luminaire","city":"Chaintré","zipcode":"71570"},{"name":"La Closerie","star":"1 étoile","chef":"Olivier Alemany","address":"bd des Platanes","city":"Ansouis","zipcode":"84240"},{"name":"Copenhague","star":"1 étoile","chef":"Andreas Møller","address":"142 AVENUE DES CHAMPS ELYSEES","city":"PARIS","zipcode":"75008"},{"name":"Fanny Rey & Jonathan Wahid","star":"1 étoile","chef":"Fanny Rey & Jonathan Wahid","address":"12, boulevard Mirabeau","city":"SAINT REMY DE PROVENCE","zipcode":"13210"},{"name":"Ithurria","star":"1 étoile","chef":"Xavier Isabal","address":"pl. du Fronton","city":"Ainhoa","zipcode":"64250"},{"name":"La Table du 11","star":"1 étoile","chef":"Jean-Baptiste Lavergne-Morazzani","address":"8 rue de la chancellerie","city":"Versailles","zipcode":"78000"},{"name":"Origine","star":"1 étoile","chef":"Benjamin Lechevallier","address":"26 rampe Cauchoise","city":"Rouen","zipcode":"76000"},{"name":"Le P'tit Polyte","star":"1 étoile","chef":"Mathew Hegarty","address":"2 Rue de la Chapelle","city":"Les Deux Alpes","zipcode":"38860"},{"name":"Maximin Hellio","star":"1 étoile","chef":"Hellio Maximin","address":"64 Rue Gambetta","city":"DEAUVILLE","zipcode":"14800"},{"name":"Michel Sarran","star":"2 étoiles","chef":"","address":"21 bd A.-Duportal","city":"Toulouse","zipcode":"31000"},{"name":"Aida","star":"1 étoile","chef":"Koji Aida","address":"1 r. Pierre Leroux","city":"Paris 07","zipcode":"75007"},{"name":"Les Climats","star":"1 étoile","chef":"Julien Boscus","address":"41 rue de Lille","city":"Paris 07","zipcode":"75007"},{"name":"La Chaumière","star":"1 étoile","chef":"Joël Césari","address":"346 av. du Mar. -Juin","city":"Dole","zipcode":"39100"},{"name":"L'Essentiel","star":"1 étoile","chef":"Mi-Ra et Charles Thuillant","address":"29 Rue Mirabeau","city":"DEAUVILLE","zipcode":"14800"},{"name":"La Table Saint-Crescent","star":"1 étoile","chef":"Lionel Giraud","address":"route de Perpignan","city":"Narbonne","zipcode":"11100"},{"name":"Le Bistro des Saveurs","star":"1 étoile","chef":"Thierry Schwartz","address":"35 Rue de Sélestat","city":"Obernai","zipcode":"67210"},{"name":"La Table du Connétable","star":"1 étoile","chef":"Julien Lucas","address":"4 Rue du Connétable","city":"Chantilly","zipcode":"60500"},{"name":"Fontevraud Le Restaurant","star":"1 étoile","chef":"Thibaut Ruggeri","address":"38 rue St-Jean-de-l'Habit","city":"FONTEVRAUD-L'ABBAYE","zipcode":"49590"},{"name":"Buerehiesel","star":"1 étoile","chef":"Eric Westermann","address":"dans le parc de l'Orangerie","city":"Strasbourg","zipcode":"67000"},{"name":"Flaveurs","star":"1 étoile","chef":"Baptiste Poinot","address":"32 Grande-Rue","city":"Valence","zipcode":"26000"},{"name":"Étude","star":"1 étoile","chef":"Keisuke Yamagishi","address":"14 r. Bouquet-de-Longchamp","city":"Paris","zipcode":"75016"},{"name":"Le Relais Bernard Loiseau","star":"2 étoiles","chef":"Patrick Bertron","address":"2, rue d'Argentine","city":"Saulieu","zipcode":"21210"},{"name":"Stéphane Carbone","star":"1 étoile","chef":"","address":"14 r. de Courtonne","city":"Caen","zipcode":"14000"},{"name":"La Table du Gourmet","star":"1 étoile","chef":"Jean-Luc Brendel","address":"5 rue 1ère Armée","city":"Riquewihr","zipcode":"68340"},{"name":"La Passagère","star":"1 étoile","chef":"Aurélien VÉQUAUD","address":"33 boulevard E. -Baudoin","city":"Juan-les-Pins","zipcode":"06160"},{"name":"L'Auberge des Glazicks","star":"2 étoiles","chef":"Olivier Bellin","address":"7 rue de la Plage","city":"PLOMODIERN","zipcode":"29550"},{"name":"Le Grand Bleu","star":"1 étoile","chef":"Maxime Lebrun","address":"43 av. de la Gare","city":"Sarlat-la-Canéda","zipcode":"24200"},{"name":"L'Ekrin by Laurent Azoulay","star":"1 étoile","chef":"Laurent AZOULAY","address":"Route de la Montée","city":"MERIBEL","zipcode":"73550"},{"name":"La Table de l'Alpaga","star":"1 étoile","chef":"Anthony Bisquerra","address":"66 Allée des Marmousets","city":"Megève","zipcode":"74120"},{"name":"Paloma","star":"2 étoiles","chef":"Nicolas DECHERCHI","address":"47 Avenue du Moulin de la Croix","city":"Mougins","zipcode":"06250"},{"name":"Le Gambetta","star":"1 étoile","chef":"Mickael Pihours","address":"12 r. Gambetta","city":"Saumur","zipcode":"49400"},{"name":"Au Vieux Couvent","star":"1 étoile","chef":"Alexis Albrecht","address":"6 r. des Chanoines","city":"Rhinau","zipcode":"67860"},{"name":"Jérôme Nutile - Le Mas de Boudan","star":"1 étoile","chef":"Jérôme Nutile","address":"351 Chemin du Mas de Boudan","city":"Nîmes","zipcode":"30000"},{"name":"Au Crocodile","star":"1 étoile","chef":"Franck Pelux","address":"10 rue de L'Outre","city":"STRASBOURG","zipcode":"67000"},{"name":"Domaine de Clairefontaine","star":"1 étoile","chef":"Philippe Girardon","address":"chemin des Fontanettes","city":"Chonas-l'Amballan","zipcode":"38121"},{"name":"Le Domaine de la Corniche","star":"1 étoile","chef":"Julien Razemon","address":"5 rte de la Corniche","city":"Rolleboise","zipcode":"78270"},{"name":"Chez Michèle","star":"1 étoile","chef":"Bruno Poiré","address":"57 rue Principale","city":"Languimberg","zipcode":"57810"},{"name":"JAN","star":"1 étoile","chef":"Jan Hendrik van der Westhuizen","address":"12 Rue Lascaris","city":"Nice","zipcode":"06000"},{"name":"Régis et Jacques Marcon","star":"3 étoiles","chef":"Régis et  Jacques Marcon","address":"Larsiallas","city":"SAINT-BONNET-LE-FROID","zipcode":"43290"},{"name":"Le France","star":"1 étoile","chef":"Hugues Droz","address":"8 place Cupillard","city":"VILLERS-LE-LAC","zipcode":"25130"},{"name":"Ima","star":"1 étoile","chef":"Julien Lemarié","address":"20 bd de la Tour-d'Auvergne","city":"Rennes","zipcode":"35000"},{"name":"Montée","star":"1 étoile","chef":"Takayuki Nameura","address":"9 r. Léopold-Robert","city":"Paris","zipcode":"75014"},{"name":"La Grand'Vigne","star":"2 étoiles","chef":"Nicolas Masse","address":"chemin de Smith-Haut-Lafitte","city":"Martillac","zipcode":"33650"},{"name":"Le Belvédère","star":"1 étoile","chef":"Guillaume Viala","address":"11 rte du Maquis-Jean-Pierre","city":"Bozouls","zipcode":"12340"},{"name":"Une Table au Sud","star":"1 étoile","chef":"Ludovic Turac","address":"2 quai du Port","city":"Marseille","zipcode":"13002"},{"name":"Auguste","star":"1 étoile","chef":"Gaël Orieux","address":"54 r. Bourgogne","city":"Paris 07","zipcode":"75007"},{"name":"L'Esquisse","star":"1 étoile","chef":"Stéphane Dattrino","address":"21 rue Royale","city":"Annecy","zipcode":"74000"},{"name":"L'Auberge Basque","star":"1 étoile","chef":"Cédric Béchade","address":"quartier Helbarron","city":"Saint-Pée-sur-Nivelle","zipcode":"64310"},{"name":"Auberge des Saints Pères","star":"1 étoile","chef":"Jean-Claude Cahagnet","address":"212 av. de Nonneville","city":"Aulnay-sous-Bois","zipcode":"93600"},{"name":"Septime","star":"1 étoile","chef":"Bertrand Grébaut","address":"80 r. de Charonne","city":"Paris","zipcode":"75011"},{"name":"Table des Frères Ibarboure","star":"1 étoile","chef":"Xabi et Patrice Ibarboure","address":"chemin Ttalienea","city":"Bidart","zipcode":"64210"},{"name":"Le Sérac","star":"1 étoile","chef":"Raphaël Le Mancq","address":"22 r. de la Comtesse","city":"Saint-Gervais-les-Bains","zipcode":"74170"},{"name":"Restaurant H","star":"1 étoile","chef":"Hubert Duchenne","address":"13 r. Jean-Beausire","city":"Paris","zipcode":"75004"},{"name":"Intuition","star":"1 étoile","chef":"Mickaël Marion","address":"1 r. Alsace-Lorraine","city":"Saint-Lô","zipcode":"50000"},{"name":"Elsa","star":"1 étoile","chef":"Paolo Sari","address":"Monte-Carlo Beach - Avenue Princesse Grace","city":"Roquebrune Cap-Martin","zipcode":"06190"},{"name":"Au Souper Fin","star":"1 étoile","chef":"Eric Buisset","address":"1 rte de Clères","city":"Frichemesnil","zipcode":"76690"},{"name":"L'Abeille","star":"2 étoiles","chef":"Christophe Moret","address":"10 Avenue d'Iéna","city":"Paris 16","zipcode":"75016"},{"name":"Comice","star":"1 étoile","chef":"Noam Gedalof","address":"31 av. de Versailles","city":"Paris","zipcode":"75016"},{"name":"Le Brittany","star":"1 étoile","chef":"Loic Le Bail","address":"bd Ste-Barbe","city":"Roscoff","zipcode":"29681"},{"name":"La Marine","star":"2 étoiles","chef":"Alexandre Couillon","address":"3 r. Marie-Lemonnier","city":"L'Herbaudière","zipcode":"85330"},{"name":"L'Atelier d'Edmond","star":"2 étoiles","chef":"Benoît Vidal","address":"au Fornet","city":"Val-d'Isère","zipcode":"73150"},{"name":"Jin","star":"1 étoile","chef":"Taku","address":"6 Rue de la Sourdière","city":"Paris","zipcode":"75001"},{"name":"Mavrommatis","star":"1 étoile","chef":"Andréas MAVROMMATIS","address":"42 rue Daubenton","city":"Paris 05","zipcode":"75005"},{"name":"Le Cercle","star":"1 étoile","chef":"Pascal Chaupitre et Christophe Lot","address":"44 bd Lahitolle","city":"Bourges","zipcode":"18000"},{"name":"Pierre","star":"1 étoile","chef":"Christian Gaulin","address":"7-9 rue Joseph Dufour","city":"Mâcon","zipcode":"71000"},{"name":"Michel Trama","star":"2 étoiles","chef":"","address":"52 r. Royale","city":"Puymirol","zipcode":"47270"},{"name":"L'Impertinent","star":"1 étoile","chef":"Fabian Feldmann","address":"5, rue d'Alsace","city":"Biarritz","zipcode":"64200"},{"name":"Les Loges","star":"1 étoile","chef":"Anthony Bonnet","address":"6 r. du Boeuf","city":"Lyon 05","zipcode":"69005"},{"name":"Auberge du Pont d'Acigné","star":"1 étoile","chef":"Sylvain Guillemot","address":"D392","city":"Noyal-sur-Vilaine","zipcode":"35530"},{"name":"Le Baudelaire","star":"1 étoile","chef":"Guillaume Goupil","address":"6-8 rue Duphot","city":"Paris 01","zipcode":"75001"},{"name":"La Table de Manville","star":"1 étoile","chef":"Matthieu Dupuis-Baumal","address":"Domaine de Manville - D27","city":"Les Baux-de-Provence","zipcode":"13520"},{"name":"Les Trois Rochers","star":"1 étoile","chef":"Fréderic Claquin","address":"16 rue du Phare","city":"Sainte-Marine","zipcode":"29120"},{"name":"La Maison des Bois - Marc Veyrat","star":"3 étoiles","chef":"Marc Veyrat","address":"Chemin Rural de Manigod au Col de la Croix Fry","city":"Manigod","zipcode":"74230"},{"name":"L'Orée de la Forêt","star":"1 étoile","chef":"Nicolas Leclercq","address":"255 r. de la Forêt","city":"Étouy","zipcode":"60600"},{"name":"Relais Louis XIII","star":"1 étoile","chef":"Manuel Martinez","address":"8 Rue des Grands Augustins","city":"Paris","zipcode":"75006"},{"name":"Les Tables de Gaspard","star":"1 étoile","chef":"Sébastien Corniau","address":"r. Principale","city":"St-Crépin","zipcode":"05600"},{"name":"L'Atelier de Jean-Luc Rabanel","star":"2 étoiles","chef":"Jean-Luc Rabanel","address":"7 r. des Carmes","city":"Arles","zipcode":"13200"},{"name":"Le Pily","star":"1 étoile","chef":"Pierre Marion","address":"39 Grande-Rue","city":"Cherbourg-en-Cotentin","zipcode":"50100"},{"name":"La Fourchette des Ducs","star":"2 étoiles","chef":"Nicolas Stamm","address":"6 r. de la Gare","city":"Obernai","zipcode":"67210"},{"name":"Restaurant de Lauzun","star":"1 étoile","chef":"Matthieu de Lauzun","address":"3 bd de l'Esplanade","city":"Gignac","zipcode":"34150"},{"name":"Rackham","star":"1 étoile","chef":"Arthur Péran","address":"27 pl. Lacaze Duthiers rčs de l'église","city":"ROSCOFF","zipcode":"29680"},{"name":"L'Aquarelle","star":"1 étoile","chef":"Xavier Taffart","address":"71 A rte du Montil","city":"Breuillet","zipcode":"17920"},{"name":"Py-r","star":"1 étoile","chef":"Pierre Lambinon","address":"19 descente de la Halle-aux-Poissons","city":"Toulouse","zipcode":"31000"},{"name":"Transparence \"La Table de Patrick Fréchin\"","star":"1 étoile","chef":"","address":"28 r. Stanislas","city":"Nancy","zipcode":"54000"},{"name":"La Table des Merville","star":"1 étoile","chef":"Thierry Merville","address":"3 place Richard","city":"Castanet-Tolosan","zipcode":"31320"},{"name":"Palm Beach","star":"1 étoile","chef":"","address":"route des Iles Sanguinaires","city":"Ajaccio","zipcode":"20000"},{"name":"L'Atlantide 1874 - Maison Guého","star":"1 étoile","chef":"Jean-Yves Guého","address":"5 r. de l'Hermitage","city":"Nantes","zipcode":"44100"},{"name":"Le Roc Alto","star":"1 étoile","chef":"Alexandre Lechêne","address":"Quartier La Ville","city":"SAINT-VERAN","zipcode":"05350"},{"name":"Kasbür","star":"1 étoile","chef":"Yves Kieffer","address":"8 Rue de Dettwiller","city":"Monswiller","zipcode":"67700"},{"name":"La Gourmandière - La Table d'Olivier","star":"1 étoile","chef":"Olivier Samson","address":"D126","city":"Vannes","zipcode":"56000"},{"name":"Akrame","star":"1 étoile","chef":"Akrame Benallal","address":"7 r. Tronchet","city":"Paris","zipcode":"75008"},{"name":"Baumanière 1850","star":"1 étoile","chef":"","address":"rte de Bellecôte","city":"Courchevel 1850","zipcode":"73120"},{"name":"Côté Jardin","star":"1 étoile","chef":"Arnaud Billard","address":"14 rte de Bourges","city":"Gien","zipcode":"45500"},{"name":"Auberge de la Mine","star":"1 étoile","chef":"Hubert Nobis","address":"le Gué-Plat","city":"La Ferrière-aux-Étangs","zipcode":"61450"},{"name":"La Rotonde","star":"1 étoile","chef":"Jean-François MALLE","address":"200 Avenue du Casino","city":"La Tour-de-Salvagny","zipcode":"69890"},{"name":"Domaine des Hauts de Loire","star":"2 étoiles","chef":"Rémy Giraud","address":"79 rue Gilbert Navard","city":"Onzain","zipcode":"41150"},{"name":"Auberge de la Brie","star":"1 étoile","chef":"Alain Pavard","address":"14 av. Alphonse Boulingre","city":"Couilly-Pont-aux-Dames","zipcode":"77860"},{"name":"SaQuaNa","star":"2 étoiles","chef":"Alexandre Bourdas","address":"22 pl. Hamelin","city":"Honfleur","zipcode":"14600"},{"name":"La Marelle","star":"1 étoile","chef":"Didier Goiffon","address":"1593 av. de Lyon","city":"Péronnas","zipcode":"01960"},{"name":"Les Trois Soleils de Montal","star":"1 étoile","chef":"Frédérik Bizat","address":"St-Jean-Lespinasse","city":"Saint-Céré","zipcode":"46400"},{"name":"La Table de la Bergerie","star":"1 étoile","chef":"David Guitton","address":"La Bergerie","city":"Champ-sur-Layon","zipcode":"49380"},{"name":"Laurent","star":"1 étoile","chef":"","address":"41 av. Gabriel","city":"Paris","zipcode":"75008"},{"name":"Le Jules Verne","star":"1 étoile","chef":"","address":"2<E>ème</E> étage Tour Eiffel","city":"Paris","zipcode":"75007"},{"name":"Auberge du Bon Laboureur","star":"1 étoile","chef":"Antoine Jeudi","address":"6 r. Dr Bretonneau","city":"Chenonceaux","zipcode":"37150"},{"name":"La Bastide de Capelongue","star":"2 étoiles","chef":"Édouard Loubet","address":"Chemin des Cabanes","city":"Bonnieux","zipcode":"84480"},{"name":"La Coquerie","star":"1 étoile","chef":"Anne Majourel","address":"1 chemin du Cimetière-Marin","city":"Sète","zipcode":"34200"},{"name":"Maison Christian Étienne","star":"1 étoile","chef":"Guilhem Sevin","address":"10 Rue de Mons","city":"Avignon","zipcode":"84000"},{"name":"Le Prieuré","star":"1 étoile","chef":"Thierry Fernandes","address":"r. de la Mairie","city":"Ambierle","zipcode":"42820"},{"name":"Le Skiff Club","star":"1 étoile","chef":"","address":"1 av. Louis-Gaume","city":"La Teste-de-Buch","zipcode":"33260"},{"name":"Le Park 45","star":"1 étoile","chef":"","address":"45 bd de la Croisette","city":"Cannes","zipcode":"06400"},{"name":"Numéro 3","star":"1 étoile","chef":"Laurent Trochain","address":"3 rue du Général de Gaulle","city":"Le Tremblay-sur-Mauldre","zipcode":"78490"},{"name":"Au Déjeuner de Sousceyrac","star":"1 étoile","chef":"Patrick Lagnès","address":"r. Pierre-Benoit","city":"Sousceyrac","zipcode":"46190"},{"name":"Le Clos des Sens","star":"2 étoiles","chef":"Laurent Petit","address":"13 r. J. -Mermoz","city":"Annecy","zipcode":"74940"},{"name":"Le Moulin de la Gorce","star":"1 étoile","chef":"Pierre Bertranet","address":"D17","city":"La Roche-l'Abeille","zipcode":"87800"},{"name":"La Ferme de l'Hospital","star":"1 étoile","chef":"Jean-Jacques Noguier","address":"rte du golf","city":"Bossey","zipcode":"74160"},{"name":"Jérôme Feck","star":"1 étoile","chef":"","address":"19 pl. Mgr-Tissier","city":"Châlons-en-Champagne","zipcode":"51000"},{"name":"Les Terrasses d'Uriage","star":"2 étoiles","chef":"Christophe Aribert","address":"pl. Déesse-Hygie","city":"Uriage-les-Bains","zipcode":"38410"},{"name":"Les Tablettes de Jean-Louis Nomicos","star":"1 étoile","chef":"Jean-Louis Nomicos","address":"16 avenue Bugeaud","city":"Paris 16","zipcode":"75116"},{"name":"La Ribaudière","star":"1 étoile","chef":"Thierry Verrat","address":"2 pl. du Port","city":"Bourg-Charente","zipcode":"16200"},{"name":"Le Bois sans Feuilles","star":"3 étoiles","chef":"Michel et César Troisgros","address":"728 Route de Villerest","city":"Ouches","zipcode":"42155"},{"name":"Miraflores","star":"1 étoile","chef":"Carlos Camino","address":"60 r. Garibaldi","city":"Lyon","zipcode":"69006"},{"name":"Le Puits St-Jacques","star":"2 étoiles","chef":"Bernard Bach","address":"av. Victor-Capoul","city":"Pujaudran","zipcode":"32600"},{"name":"Le Passe Temps","star":"1 étoile","chef":"Younghoon Lee","address":"52 Rue Tronchet","city":"Lyon","zipcode":"69006"},{"name":"Le Moulin d'Alotz","star":"1 étoile","chef":"Benoit Sarthou","address":"chemin Alotz-Errota","city":"Alotz","zipcode":"64200"},{"name":"Les Chênes Verts","star":"1 étoile","chef":"","address":"rte de Villecroze","city":"Tourtour","zipcode":"83690"},{"name":"Maximilien","star":"1 étoile","chef":"Jean-Michel Eblin","address":"19a rte Ostheim","city":"Zellenberg","zipcode":"68340"},{"name":"Le Manoir du Lys","star":"1 étoile","chef":"Franck Quinton","address":"D235","city":"Bagnoles-de-l'Orne","zipcode":"61140"},{"name":"La Promenade","star":"1 étoile","chef":"Fabrice et Jacky Dallais","address":"11 rue du Savoureulx","city":"Le Petit-Pressigny","zipcode":"37350"},{"name":"La Merise","star":"1 étoile","chef":"Cédric Deckert","address":"7 r. d'Eschbach","city":"Laubach","zipcode":"67580"},{"name":"La Palme d'Or","star":"2 étoiles","chef":"Christian Sinicropi","address":"73 Boulevard de la Croisette","city":"Cannes","zipcode":"06400"},{"name":"L'Oasis","star":"2 étoiles","chef":"Stéphane, Antoine et François Raimbault","address":"rue Jean-Honoré Carle","city":"La Napoule","zipcode":"06210"},{"name":"Guy Lassausaie","star":"2 étoiles","chef":"","address":"r. de Belle-Sise","city":"Chasselay","zipcode":"69380"},{"name":"Jérémy Galvan","star":"1 étoile","chef":"","address":"Rue du Boeuf","city":"Lyon 05","zipcode":"69005"},{"name":"Étincelles - La Gentilhommière","star":"1 étoile","chef":"Vincent Lucas","address":"","city":"Sainte-Sabine","zipcode":"24440"},{"name":"L'Archeste","star":"1 étoile","chef":"Yoshiaki Ito","address":"79 rue de la Tour","city":"Paris","zipcode":"75116"},{"name":"Le Cap","star":"1 étoile","chef":"Yoric Tièche","address":"71 Boulevard du Général-de-Gaulle","city":"SAINT-JEAN-CAP-FERRAT","zipcode":"06230"},{"name":"Maison Decoret","star":"1 étoile","chef":"Jacques Decoret","address":"15 rue du Parc","city":"Vichy","zipcode":"03200"},{"name":"Louison","star":"1 étoile","chef":"Gérald Passedat","address":"2750 route de la cride","city":"Le Puy-Sainte-Réparade","zipcode":"13610"},{"name":"L'Odas","star":"1 étoile","chef":"Olivier Da Silva","address":"4 Passage Maurice Lenfant","city":"Rouen","zipcode":"76000"},{"name":"L'Essentiel","star":"1 étoile","chef":"Eric Vidal","address":"8 r. de la Clarté","city":"Périgueux","zipcode":"24000"},{"name":"Auberge de la Diligence","star":"1 étoile","chef":"Michel Cudraz","address":"4 r. de la Libération","city":"Loiré","zipcode":"49440"},{"name":"1912","star":"1 étoile","chef":"Le chef Johan THYRIOT","address":"bd de la Cahotte","city":"Trouville-sur-Mer","zipcode":"14360"},{"name":"Les Pyrénées","star":"1 étoile","chef":"Philippe Arrambide","address":"19 pl. Ch.-de-Gaulle","city":"Saint-Jean-Pied-de-Port","zipcode":"64220"},{"name":"Mickaël Féval","star":"1 étoile","chef":"","address":"11 Petite-Rue-St-Jean","city":"Aix-en-Provence","zipcode":"13100"},{"name":"Mathieu Pacaud - Histoires","star":"2 étoiles","chef":"Mathieu Pacaud","address":"85 Avenue Kléber","city":"Paris","zipcode":"75016"},{"name":"Le Chiberta","star":"1 étoile","chef":"Stéphane Laruelle","address":"3 Rue Arsène Houssaye","city":"Paris 08","zipcode":"75008"},{"name":"Le Neuvième Art","star":"2 étoiles","chef":"Christophe Roure","address":"173 r. Cuvier","city":"Lyon","zipcode":"69006"},{"name":"Le Pré Catelan","star":"3 étoiles","chef":"Chef Frédéric Anton","address":"Route de Suresnes","city":"Paris","zipcode":"75016"},{"name":"Le Petit Nice","star":"3 étoiles","chef":"Gérald Passédat","address":"Anse de Maldormé - Corniche J. F. Kennedy","city":"Marseille 07","zipcode":"13007"},{"name":"La Tour des Vents","star":"1 étoile","chef":"Damien Fagette","address":"Le Moulin de Malfourat","city":"Monbazillac","zipcode":"24240"},{"name":"Auberge St-Jean","star":"1 étoile","chef":"Thomas L'Hérisson","address":"8 r. du Pont","city":"Saint-Jean-de-Blaignac","zipcode":"33420"},{"name":"La Scène Thélème","star":"1 étoile","chef":"Julien Roucheteau","address":"18 Rue Troyon","city":"Paris","zipcode":"75017"},{"name":"L'Auberge de Bagatelle","star":"1 étoile","chef":"Jean-Sébastien Monné","address":"489 av. Bollée","city":"Le Mans","zipcode":"72000"},{"name":"Le Gabriel","star":"2 étoiles","chef":"Jérôme Banctel","address":"42 Avenue Gabriel","city":"Paris","zipcode":"75008"},{"name":"Lasserre","star":"1 étoile","chef":"","address":"17 Avenue F. -D. -Roosevelt","city":"Paris 08","zipcode":"75008"},{"name":"Hervé Busset","star":"1 étoile","chef":"HERVE BUSSET","address":"D901","city":"Conques","zipcode":"12320"},{"name":"Le Kintessence","star":"2 étoiles","chef":"Jean-Rémi Caillon","address":"Rue des Clarines","city":"Courchevel 1850","zipcode":"73120"},{"name":"Château de Pray","star":"1 étoile","chef":"Arnaud Philippon","address":"Rue du Cèdre","city":"Amboise","zipcode":"37400"},{"name":"Le Parc Les Crayères","star":"2 étoiles","chef":"PHILIPPE MILLE","address":"64 Boulevard Henry Vasnier","city":"Reims","zipcode":"51100"},{"name":"Le Coquillage","star":"1 étoile","chef":"Hugo Roellinger","address":"Lieu-dit Le Buot","city":"Saint-Méloir-des-Ondes","zipcode":"35350"},{"name":"Le Strasbourg","star":"1 étoile","chef":"Lutz Janisch","address":"24 r. du Col. -Teyssier","city":"Bitche","zipcode":"57230"},{"name":"Ô Saveurs","star":"1 étoile","chef":"David Biasibetti","address":"8 place Ormeaux au village","city":"ROUFFIAC-TOLOSAN","zipcode":"31180"},{"name":"Auberge du Cheval Blanc","star":"2 étoiles","chef":"Pascal Bastian","address":"4 Route de Wissembourg","city":"Lembach","zipcode":"67510"},{"name":"Le Clocher des Pères","star":"1 étoile","chef":"Pierre Troccaz","address":"D213","city":"Saint-Martin-sur-la-Chambre","zipcode":"73130"},{"name":"Greuze","star":"1 étoile","chef":"Yohann Chapuis","address":"1 r. A. Thibaudet","city":"Tournus","zipcode":"71700"},{"name":"Le Bon Accueil","star":"1 étoile","chef":"Marc Faivre","address":"32 Grande-Rue","city":"Malbuisson","zipcode":"25160"},{"name":"Maison Prévôt","star":"1 étoile","chef":"Jean-Jacques Prévôt","address":"353 av. de Verdun","city":"Cavaillon","zipcode":"84300"},{"name":"Helen","star":"1 étoile","chef":"Sébastien Carmona Porto","address":"3 r.Berryer","city":"Paris","zipcode":"75008"},{"name":"Maison Jeunet","star":"2 étoiles","chef":"Steven Naessens","address":"9 r. de l'Hôtel-de-Ville","city":"Arbois","zipcode":"39600"},{"name":"Le Château de Sable","star":"1 étoile","chef":"","address":"38 r. de l'Europe","city":"Porspoder","zipcode":"29840"},{"name":"Le Pré - Xavier Beaudiment","star":"2 étoiles","chef":"BEAUDIMENT Xavier","address":"3 Route de la Baraque","city":"Durtol","zipcode":"63830"},{"name":"L'Épuisette","star":"1 étoile","chef":"Guillaume SOURRIEU","address":"158 Vallon-des-Auffes","city":"Marseille","zipcode":"13007"},{"name":"Le Corot","star":"1 étoile","chef":"Rémi Chambard","address":"55 Rue de Versailles","city":"VILLE-D'AVRAY","zipcode":"92410"},{"name":"64° Le Restaurant","star":"2 étoiles","chef":"Olivier Nasti","address":"9-13 Rue du Général de Gaulle","city":"Kaysersberg","zipcode":"68240"},{"name":"Château Cordeillan-Bages","star":"1 étoile","chef":"Julien Lefebvre","address":"61 rue des Vignerons","city":"Pauillac","zipcode":"33250"},{"name":"La Table des Cordeliers","star":"1 étoile","chef":"Éric Sampietro","address":"1 r. des Cordeliers","city":"Condom","zipcode":"32100"},{"name":"Julien Binz","star":"1 étoile","chef":"Le Chef Julien Binz","address":"7 Rue des Cigognes","city":"Ammerschwihr","zipcode":"68770"},{"name":"Le Pergolèse","star":"1 étoile","chef":"Stéphane Gaborieau","address":"40, Rue Pergolèse","city":"Paris","zipcode":"75016"},{"name":"Ed.Em","star":"1 étoile","chef":"Edouard Mignot","address":"4 imp. Chenevottes","city":"Chassagne-Montrachet","zipcode":"21190"},{"name":"La Maison de Bournissac","star":"1 étoile","chef":"Christian Peyre","address":"montée d'Eyragues","city":"Les Paluds-des-Noves","zipcode":"13550"},{"name":"Jérôme Brochot","star":"1 étoile","chef":"Jérôme Brochot","address":"Place Beaubernard","city":"Montceau-les-Mines","zipcode":"71300"},{"name":"Gordon Ramsay au Trianon","star":"1 étoile","chef":"","address":"1 bd de la Reine","city":"Versailles","zipcode":"78000"},{"name":"La Pyramide-Patrick Henriroux","star":"2 étoiles","chef":"Patrick Henriroux","address":"14 Boulevard Fernand Point","city":"Vienne","zipcode":"38200"},{"name":"Lamartine","star":"1 étoile","chef":"Pierre Marin","address":"Route du Tunnel du Chat","city":"Le Bourget du Lac","zipcode":"73370"},{"name":"Le Camélia","star":"1 étoile","chef":"Thierry Conte","address":"7 quai Georges Clemenceau","city":"Bougival","zipcode":"78380"},{"name":"Le Chantecler","star":"2 étoiles","chef":"Jean-Denis Rieubland","address":"37 Promenade des Anglais","city":"NICE","zipcode":"06000"},{"name":"Le Carrousel","star":"1 étoile","chef":"Olivier Said","address":"14 rue du Pont de Morge","city":"MARINGUES","zipcode":"63350"},{"name":"David Toutain","star":"1 étoile","chef":"","address":"29 r. Surcouf","city":"Paris","zipcode":"75007"},{"name":"Le Moulin de l'Abbaye","star":"1 étoile","chef":"LECOIN LOIC","address":"1 avenue Pierre de Bourdeilles","city":"BRANTOME","zipcode":"24310"},{"name":"Château du Mont Joly","star":"1 étoile","chef":"Romuald Fassenet","address":"6 r. du Mont-Joly","city":"Sampans","zipcode":"39100"},{"name":"Neige d'Été","star":"1 étoile","chef":"Hideki Nishi","address":"12 Rue de l'Amiral Roussin","city":"Paris 15","zipcode":"75015"},{"name":"Jean Sulpice","star":"2 étoiles","chef":"","address":"303 rte du Port","city":"Talloires","zipcode":"74290"},{"name":"Frédéric Doucet","star":"1 étoile","chef":"Frédéric Doucet","address":"2 avenue de la Libération","city":"Charolles","zipcode":"71120"},{"name":"Pages","star":"1 étoile","chef":"Ryuji Teshima","address":"4 r. Auguste-Vacquerie","city":"Paris","zipcode":"75016"},{"name":"Mon Plaisir","star":"1 étoile","chef":"Christian Pilloud","address":"22 lieu-dit Journal","city":"Chamesol","zipcode":"25190"},{"name":"La Table de La Butte","star":"1 étoile","chef":"Nicolas Conraux","address":"10 rue de la Mer","city":"PLOUIDER","zipcode":"29260"},{"name":"Auberge de la Charme","star":"1 étoile","chef":"Nicolas Isnard et David Le Comte","address":"12 r. de la Charme","city":"Prenois","zipcode":"21370"},{"name":"La Chèvre d'Or","star":"2 étoiles","chef":"Arnaud Faye, Chef Exécutif et Julien Dugourd, Chef Pâtissier","address":"r. du Barri","city":"Èze","zipcode":"06360"},{"name":"Le George","star":"1 étoile","chef":"Simone Zanoni ","address":"31 Avenue George V","city":"Paris","zipcode":"75008"},{"name":"Albert 1er","star":"2 étoiles","chef":"Pierre Maillet","address":"38 rte du Bouchet","city":"Chamonix-Mont-Blanc","zipcode":"74400"},{"name":"Pic","star":"3 étoiles","chef":"Anne-Sophie Pic","address":"285 avenue Victor Hugo","city":"Valence","zipcode":"26000"},{"name":"Au 14 Février","star":"1 étoile","chef":"Tsuyoshi Arai","address":"36 r. du Bœuf","city":"Lyon 05","zipcode":""},{"name":"Auberge de la Tour","star":"1 étoile","chef":"Renaud Darmanin","address":"Place de la Fontaine","city":"MARCOLES","zipcode":"15220"},{"name":"Likoké","star":"1 étoile","chef":"Piet Huysentruyt","address":"7 rte de Païolive","city":"Les Vans","zipcode":"07140"},{"name":"Le M","star":"1 étoile","chef":"Philippe Le Bigot","address":"22 r. du Cdt-Drogou","city":"Brest","zipcode":"29200"},{"name":"Château de la Treyne","star":"1 étoile","chef":"","address":"","city":"Lacave","zipcode":"46200"},{"name":"La Marande","star":"1 étoile","chef":"Philippe Michel","address":"lieu-dit Mirande","city":"Montbellet","zipcode":"71260"},{"name":"Les Bacchanales","star":"1 étoile","chef":"Christophe Dufau","address":"247 avenue de Provence","city":"VENCE","zipcode":"06140"},{"name":"Une Île","star":"1 étoile","chef":"Gérard Bossé","address":"9 r. Max-Richard","city":"Angers","zipcode":"49000"},{"name":"Le Carré d'Alethius","star":"1 étoile","chef":"Olivier Samin","address":"4 r. Paul-Bertois","city":"Charmes-sur-Rhône","zipcode":"07800"},{"name":"1131","star":"1 étoile","chef":"Royer Guillaume","address":"D 33","city":"La Bussière-sur-Ouche","zipcode":"21360"},{"name":"Cobéa","star":"1 étoile","chef":"Philippe Bélissent","address":"11 r. Raymond Losserand","city":"Paris 14","zipcode":"75014"},{"name":"Alain Ducasse au Plaza Athénée","star":"3 étoiles","chef":"","address":"25 avenue Montaigne","city":"Paris","zipcode":"75008"},{"name":"Le 39V","star":"1 étoile","chef":"Frédéric Vardon","address":"39 Avenue George V","city":"Paris 08","zipcode":"75008"},{"name":"L'Arcane","star":"1 étoile","chef":"Laurent Magnin","address":"39 Rue Lamarck","city":"Paris","zipcode":"75018"},{"name":"Emporio Armani Caffè","star":"1 étoile","chef":"Massimo Mori","address":"149 bd St-Germain","city":"Paris 06","zipcode":"75006"},{"name":"La Bastide St-Antoine","star":"1 étoile","chef":"Jacques Chibois","address":"48 av. Henri-Dunant","city":"Grasse","zipcode":"06130"},{"name":"Divellec","star":"1 étoile","chef":"","address":"18 r. Fabert","city":"Paris","zipcode":"75007"},{"name":"Le Castellaras","star":"1 étoile","chef":"Quentin Joplet","address":"461 chemin Peymeyan","city":"Fayence","zipcode":"83440"},{"name":"Yam'Tcha","star":"1 étoile","chef":"Adeline Grattard","address":"121 r. St-Honoré","city":"Paris","zipcode":"75001"},{"name":"Radio","star":"1 étoile","chef":"Wilfrid CHAPLAIN ","address":"43 av. P. et M.-Curie","city":"Chamalières","zipcode":"63400"},{"name":"Il Carpaccio","star":"1 étoile","chef":"","address":"37 avenue Hoche","city":"Paris 08","zipcode":"75008"},{"name":"Le Mas du Langoustier","star":"1 étoile","chef":"","address":"","city":"Hyères","zipcode":"83400"},{"name":"Kei","star":"2 étoiles","chef":"Kei Kobayashi","address":"5 rue du Coq-Héron","city":"Paris 01","zipcode":"75001"},{"name":"La Nouvelle Auberge","star":"1 étoile","chef":"Bernard Leray","address":"9 route Nationale","city":"Wihr-au-Val","zipcode":"68230"},{"name":"Henri et Joseph","star":"1 étoile","chef":"Philippe Le Lay","address":"4 r. Léo-le-Bourgo","city":"Lorient","zipcode":"56100"},{"name":"Le Bistrot de Lagarde","star":"1 étoile","chef":"Lloyd Tropeano","address":"rte d'Apt","city":"Lagarde-d'Apt","zipcode":"84400"},{"name":"Le Pavé d'Auge","star":"1 étoile","chef":"Jérôme Bansard","address":"D49","city":"Beuvron-en-Auge","zipcode":"14430"},{"name":"Le Patio","star":"1 étoile","chef":"Thierry Renou","address":"10 bd de la Plage","city":"Arcachon","zipcode":"33120"},{"name":"Loiseau rive Gauche","star":"1 étoile","chef":"Maxime Laurenson","address":"5 rue Bourgogne","city":"Paris 07","zipcode":"75007"},{"name":"L'Auberge de la Pomme","star":"1 étoile","chef":"William Boquelet","address":"44 rue de l' eure","city":"Les Damps","zipcode":"27340"},{"name":"Pèir","star":"1 étoile","chef":"","address":"r. de la Combe","city":"Gordes","zipcode":"84220"},{"name":"Auberge Frankenbourg","star":"1 étoile","chef":"Sébastien Buecher","address":"13 r. Gén. de Gaulle","city":"La Vancelle","zipcode":"67730"},{"name":"La Petite Maison de Cucuron","star":"1 étoile","chef":"Eric Sapet","address":"pl. de l'Étang","city":"Cucuron","zipcode":"84160"},{"name":"Brikéténia","star":"1 étoile","chef":"Martin et David Ibarboure","address":"142 r. de l'Église","city":"Guéthary","zipcode":"64210"},{"name":"Auberge au Boeuf","star":"1 étoile","chef":"Yannick Germain","address":"Rue de l'Eglise","city":"Sessenheim","zipcode":"67770"},{"name":"Auberge Grand'Maison","star":"1 étoile","chef":"Christophe Le Fur","address":"1 r. Léon-le-Cerf","city":"Mûr-de-Bretagne","zipcode":"22530"},{"name":"En Marge","star":"1 étoile","chef":"Frank Renimel","address":"1204 rte de la Croix-Falgarde","city":"AUREVILLE","zipcode":"31320"},{"name":"Hostellerie Bérard","star":"1 étoile","chef":"Jean-François Bérard","address":"Avenue Gabriel-Péri","city":"LA-CADIERE-D'AZUR","zipcode":"83740"},{"name":"Casadelmar","star":"2 étoiles","chef":"Fabio Bragagnolo","address":"Route de la Plage de Palombaggia","city":"Porto-Vecchio","zipcode":"20137"},{"name":"Le Cerisier","star":"1 étoile","chef":"Eric Delerue","address":"3 rue de la Gare","city":"LAVENTIE","zipcode":"62840"},{"name":"Le Kaïku","star":"1 étoile","chef":"Nicolas Borombo","address":"17 r. de la République","city":"Saint-Jean-de-Luz","zipcode":"64500"},{"name":"La Maison dans le Parc","star":"1 étoile","chef":"Françoise Mutel","address":"3 r. Ste-Catherine","city":"Nancy","zipcode":"54000"},{"name":"La Table","star":"1 étoile","chef":"Nicolas Pourcheresse","address":"32 Rue de la Barre","city":"Lille","zipcode":"59000"},{"name":"Umami","star":"1 étoile","chef":"René Fieger","address":"8 r. des Dentelles","city":"Strasbourg","zipcode":"67000"},{"name":"J.-M. Pérochon","star":"1 étoile","chef":"Jean-Marc Pérochon","address":"63 avenue de la Grand'Roche","city":"Brétignolles-sur-Mer","zipcode":"85470"},{"name":"Ô Flaveurs","star":"1 étoile","chef":"Jérôme Mamet","address":"Château de Chilly","city":"Douvaine","zipcode":"74140"},{"name":"La Grignotière","star":"1 étoile","chef":"Pascal Coulon","address":"6 Rue Jean Jaures","city":"Raismes","zipcode":"59590"},{"name":"Le Marcq","star":"1 étoile","chef":"Abdelkader Belfatmi","address":"944 av. de la République","city":"Marcq-en-Barœul","zipcode":"59700"},{"name":"Pierre Gagnaire","star":"3 étoiles","chef":"Pierre GAGNAIRE","address":"6 Rue Balzac","city":"Paris 08","zipcode":"75008"},{"name":"St-James Paris","star":"1 étoile","chef":"","address":"43 av. Bugeaud","city":"Paris","zipcode":"75116"},{"name":"Hostellerie Les Gorges de Pennafort","star":"1 étoile","chef":"Philippe Da Silva","address":"8660 RD 25","city":"Callas","zipcode":"83830"},{"name":"La Maison d'à Côté","star":"1 étoile","chef":"Christophe Hay","address":"17 rue de Chambord","city":"Montlivault","zipcode":"41350"},{"name":"La Table d'Olivier","star":"1 étoile","chef":"Pierre Neveu","address":"3 r. St-Ambroise","city":"Brive-la-Gaillarde","zipcode":"19100"},{"name":"JY'S","star":"2 étoiles","chef":"Jean-Yves Schillinger","address":"17 r. de la Poissonnerie","city":"Colmar","zipcode":"68000"},{"name":"La Mare aux Oiseaux","star":"1 étoile","chef":"Eric Guérin","address":"223 RUE DU CHEF DE L'ILE Fedrun","city":"Saint-Joachim","zipcode":"44720"},{"name":"La Grande Maison de Bernard Magrez","star":"2 étoiles","chef":"Pierre Gagnaire","address":"10 Rue Labottière","city":"Bordeaux","zipcode":"33000"},{"name":"Quai des Saveurs","star":"1 étoile","chef":"Frédéric Sandrini","address":"69 rue de la Gare","city":"Hagondange","zipcode":"57300"},{"name":"La Promenade","star":"1 étoile","chef":"Nicolas Thomas","address":"2 promenade Jean-Jaurès","city":"Verfeil","zipcode":"31590"},{"name":"Auberge du Dun","star":"1 étoile","chef":"Pierre Chrétien","address":"3 rte de Dieppe","city":"Le Bourg-Dun","zipcode":"76740"},{"name":"Auberge des Templiers","star":"1 étoile","chef":"Yoshihiko MIURA","address":"D2007","city":"Les Bézards","zipcode":"45290"},{"name":"L'Aromate","star":"1 étoile","chef":"Mickaël Gracieux","address":"2 r. Gustave Deloye","city":"Nice","zipcode":"06000"},{"name":"Les Fresques","star":"1 étoile","chef":"Didier Casaguana","address":"D18","city":"Monestier","zipcode":"24240"},{"name":"La Renaissance","star":"1 étoile","chef":"Arnaud Viel","address":"20 av. 2e-Division-Blindée","city":"Argentan","zipcode":"61200"},{"name":"Château Blanchard","star":"1 étoile","chef":"Sylvain Roux","address":"36 rte de St-Galmier","city":"Chazelles-sur-Lyon","zipcode":"42140"},{"name":"Château d'Adoménil","star":"1 étoile","chef":"Cyril Leclerc","address":"","city":"Lunéville","zipcode":"54300"},{"name":"Pierre Orsi","star":"1 étoile","chef":"Pierre Orsi","address":"Place Kléber","city":"Lyon 06","zipcode":"69006"},{"name":"Les Terrasses de Lyon","star":"1 étoile","chef":"David Delsart","address":"25, montée Saint BArthelémy","city":"Lyon 05","zipcode":"69005"},{"name":"Le Village","star":"1 étoile","chef":"Tomohiro Uido","address":"3 Grande-Rue","city":"Marly-le-Roi","zipcode":"78160"},{"name":"Les Bories","star":"1 étoile","chef":"MIRER Gregory","address":"rte de l'Abbaye de Sénanque","city":"Gordes","zipcode":"84220"},{"name":"Le Pressoir d'Argent - Gordon Ramsay","star":"2 étoiles","chef":"Gordon Ramsay et le Chef Exécutif Gilad Peled","address":"2,5 Place de la Comédie","city":"Bordeaux","zipcode":"33000"},{"name":"Le Pousse-Pied","star":"1 étoile","chef":"Anthony Lumet","address":"84 bd des Vendéens","city":"La Tranche-sur-Mer","zipcode":"85360"},{"name":"La Marine","star":"1 étoile","chef":"","address":"11 r. de Paris","city":"Barneville-Carteret","zipcode":"50270"},{"name":"L'Orangerie du Château","star":"1 étoile","chef":"Jean-Marc Molveaux","address":"1 Avenue du Docteur Jean Laigret","city":"Blois","zipcode":"41000"},{"name":"Château de Vauchoux","star":"1 étoile","chef":"Jean-Michel Turin","address":"","city":"Vauchoux","zipcode":"70170"},{"name":"Le Vieux Logis","star":"1 étoile","chef":"ARNOULD Vincent","address":"Le Bourg","city":"Trémolat","zipcode":"24510"},{"name":"Maison Crouzil et Hôtel L'Écrin","star":"1 étoile","chef":"","address":"20 les Quais","city":"Plancoët","zipcode":"22130"},{"name":"Meurin","star":"2 étoiles","chef":"Marc Meurin","address":"Rue de Lillers","city":"Busnes","zipcode":"62350"},{"name":"Entre Vigne et Garrigue","star":"1 étoile","chef":"Serge et Maxime Chenet","address":"600 route de Saint Bruno","city":"Pujaut","zipcode":"30131"},{"name":"Au 14 Février","star":"2 étoiles","chef":"Masafumi Hamano","address":"Le Plâtre-Durand","city":"Saint-Amour-Bellevue","zipcode":"71570"},{"name":"Le Foch","star":"1 étoile","chef":"Jacky Louazé","address":"37 bd Foch","city":"Reims","zipcode":"51100"},{"name":"L'Éveil des Sens","star":"1 étoile","chef":"Nicolas Nobis","address":"429 bd Paul-Lintier","city":"Mayenne","zipcode":"53100"},{"name":"La Bonne Auberge","star":"1 étoile","chef":"Lydia Egloff","address":"15 r. Nationale","city":"Stiring-Wendel","zipcode":"57350"},{"name":"Racine","star":"1 étoile","chef":"Kazuyuki Tanaka","address":"6 pl. Godinot","city":"Reims","zipcode":"51100"},{"name":"Château de Codignat","star":"1 étoile","chef":"Barbet Matthieu","address":"Bort l'Etang","city":"Bort-l'Étang","zipcode":"63190"},{"name":"La Tour","star":"1 étoile","chef":"Baptiste Fournier","address":"31 Nouvelle-Place","city":"Sancerre","zipcode":"18300"},{"name":"À Contre Sens","star":"1 étoile","chef":"Anthony Caillot","address":"8-10 r. des Croisiers","city":"Caen","zipcode":"14000"},{"name":"Auberge du Paradis","star":"1 étoile","chef":"Cyril Laugier","address":"Le Plâtre-Durand","city":"Saint-Amour-Bellevue","zipcode":"71570"},{"name":"Lou Cigalon-Maison Martin","star":"1 étoile","chef":"Christophe Martin","address":"6 bd Carnot","city":"Valbonne","zipcode":"06560"},{"name":"Faventia","star":"1 étoile","chef":"Philippe Jourdin","address":"3100 route de Bagnols-en-Forêt","city":"Tourrettes","zipcode":"83440"},{"name":"Lucas Carton","star":"1 étoile","chef":"Julien Dumas","address":"9 pl. de la Madeleine","city":"Paris 08","zipcode":"75008"},{"name":"Bruno","star":"1 étoile","chef":"Benjamin Bruno","address":"2350 route des Arcs, Campagne Mariette","city":"Lorgues","zipcode":"83510"},{"name":"Le Pavillon","star":"1 étoile","chef":"","address":"av. du Verger","city":"Le Touquet-Paris-Plage","zipcode":"62520"},{"name":"Arpège","star":"3 étoiles","chef":"Alain Passard","address":"84 Rue de Varenne","city":"Paris","zipcode":"75007"},{"name":"Table - Bruno Verjus","star":"1 étoile","chef":"","address":"3 r. de Prague","city":"Paris","zipcode":"75012"},{"name":"L'Aubergade","star":"1 étoile","chef":"Eric Boutté","address":"78 rte Nationale","city":"Dury","zipcode":"80480"},{"name":"Le Grand Restaurant - Jean-François Piège","star":"2 étoiles","chef":"","address":"7 r. d'Aguesseau","city":"Paris","zipcode":"75008"},{"name":"Val d'Auge","star":"1 étoile","chef":"Christophe Hagnerelle","address":"805 av. du Gén.-de-Gaulle","city":"Bondues","zipcode":"59910"},{"name":"La Dame de Pic","star":"1 étoile","chef":"Anne-Sophie Pic","address":"20 Rue du Louvre","city":"Paris 01","zipcode":"75001"},{"name":"Hostellerie la Montagne","star":"1 étoile","chef":"Jean-Baptiste Natali","address":"10 rue Pisseloup","city":"COLOMBEY-LES-DEUX-EGLISES","zipcode":"52330"},{"name":"L'Olivier","star":"1 étoile","chef":"COLINET PHILIPPE","address":"25 Route des Carles","city":"Saint-Tropez","zipcode":"83990"},{"name":"Loiseau des Vignes","star":"1 étoile","chef":"Haddouche Mourad","address":"31 Rue Jean Francois Maufoux","city":"Beaune","zipcode":"21200"},{"name":"Le Lido","star":"1 étoile","chef":"Romuald ROYER","address":"42 av. Napoléon-III","city":"Propriano","zipcode":"20110"},{"name":"Palégrié","star":"1 étoile","chef":"","address":"Les Ritons","city":"Corrençon-en-Vercors","zipcode":"38250"},{"name":"La Vieille Tour","star":"1 étoile","chef":"Nicolas Adam","address":"75 r. de la Tour","city":"Plérin","zipcode":"22190"},{"name":"Domaine d'Auriac","star":"1 étoile","chef":"Philippe Deschamps","address":"Route de Saint-Hilaire","city":"Carcassonne","zipcode":"11000"},{"name":"La Table by La Villa","star":"1 étoile","chef":"","address":"chemin de Notre-Dame-de-la-Serra","city":"Calvi","zipcode":"20260"},{"name":"Sushi B","star":"1 étoile","chef":"","address":"5 r. Rameau","city":"Paris","zipcode":"75002"},{"name":"Le Chateaubriand","star":"1 étoile","chef":"Inaki Aizpitarte","address":"129 av. Parmentier","city":"Paris","zipcode":"75011"},{"name":"Haut Bonheur de la Table","star":"1 étoile","chef":"Eugène Hobraiche","address":"18 Grand-Place","city":"Cassel","zipcode":"59670"},{"name":"Hostellerie de l'Abbaye de la Celle","star":"1 étoile","chef":"Nicolas Pierantoni","address":"10 Place Général de Gaulle","city":"La Celle","zipcode":"83170"},{"name":"Dominique Bouchet","star":"1 étoile","chef":"Dominique Bouchet","address":"11 Rue Treilhard","city":"Paris","zipcode":"75008"},{"name":"Le Bec au Cauchois","star":"1 étoile","chef":"Pierre Caillet","address":"22 Rue André Fiquet","city":"Valmont","zipcode":"76540"},{"name":"Gavroche","star":"1 étoile","chef":"Benoit Fuchs","address":"4 r. Klein","city":"Strasbourg","zipcode":"67000"},{"name":"L'Hysope","star":"1 étoile","chef":"","address":"25 r. de l'Aurore","city":"La Jarrie","zipcode":"17220"},{"name":"Christopher Coutanceau","star":"2 étoiles","chef":"CHRISTOPHER COUTANCEAU","address":"Promenade de la Concurrence","city":"La Rochelle","zipcode":"17000"},{"name":"La Scène","star":"1 étoile","chef":"Stéphanie Le Quellec","address":"33 Avenue George V","city":"Paris","zipcode":"75008"},{"name":"L'Atelier de Joël Robuchon - Étoile","star":"1 étoile","chef":"","address":"133 av. des Champs-Élysées","city":"Paris","zipcode":"75008"},{"name":"Le Clos St-Pierre","star":"1 étoile","chef":"Daniel Ettlinger","address":"pl. de la Mairie","city":"Le Rouret","zipcode":"06650"},{"name":"Prairial","star":"1 étoile","chef":"Gaëtan Gentil","address":"11 Rue Chavanne","city":"Lyon","zipcode":"69001"},{"name":"Alcyone","star":"1 étoile","chef":"Lionel Levy","address":"1 Place Daviel","city":"MARSEILLE","zipcode":"13002"},{"name":"Les Bas-Rupts","star":"1 étoile","chef":"Michel Philippe","address":"181 rte de la Bresse","city":"Bas-Rupts","zipcode":"88400"},{"name":"Au Trou Gascon","star":"1 étoile","chef":"Clément THOUVENOT","address":"40 r. Taine","city":"Paris 12","zipcode":"75012"},{"name":"Stéphane Derbord","star":"1 étoile","chef":"Stéphane Derbord","address":"10 Place du Président Wilson","city":"Dijon","zipcode":"21000"},{"name":"Assiette Champenoise","star":"3 étoiles","chef":"Arnaud Lallement","address":"40 av. Paul Vaillant-Couturier","city":"Tinqueux","zipcode":"51430"},{"name":"Auberge de l'Île Barbe","star":"1 étoile","chef":"Jean-Christophe Ansanay-Alex","address":"1 Place Notre-Dame","city":"Lyon 09","zipcode":"69009"},{"name":"Le Fanal","star":"1 étoile","chef":"Pascal Borrell","address":"17 Avenue du Fontaulé","city":"Banyuls-sur-Mer","zipcode":"66650"},{"name":"Alain Llorca","star":"1 étoile","chef":"LLORCA ALAIN","address":"350 Route de St-Paul","city":"La Colle-sur-Loup","zipcode":"06480"},{"name":"Le Pressoir","star":"1 étoile","chef":"Vincent David","address":"7 r. de l'Hôpital","city":"Saint-Avé","zipcode":"56890"},{"name":"Quinsou","star":"1 étoile","chef":"Antonin Bonnet","address":"33 r. de l'Abbé-Grégoire","city":"Paris","zipcode":"75006"},{"name":"Pierre Reboul","star":"1 étoile","chef":"","address":"260 r. Guillaume-du-Vair","city":"Aix-en-Provence","zipcode":"13546"},{"name":"La Gloire","star":"1 étoile","chef":"Jean-Claude Martin","address":"74 av. du Gén.-de-Gaulle","city":"Montargis","zipcode":"45200"},{"name":"Meulien","star":"1 étoile","chef":"Valéry Meulien","address":"1 bis av. des Alpes","city":"Tournus","zipcode":"71700"},{"name":"La Roya","star":"1 étoile","chef":"","address":"plage de la Roya","city":"Saint-Florent","zipcode":"20217"},{"name":"Le Cerf","star":"1 étoile","chef":"Michel Husser et Joël Philipps","address":"30 r. du Gén.-de-Gaulle","city":"Marlenheim","zipcode":"67520"},{"name":"Le Prieuré","star":"1 étoile","chef":"","address":"7 pl. du Chapitre","city":"Villeneuve-lès-Avignon","zipcode":"30400"},{"name":"Le Georges","star":"1 étoile","chef":"Nicolas Mendès","address":"22 pl. des Épars","city":"CHARTRES","zipcode":"28000"},{"name":"Relais de la Poste","star":"1 étoile","chef":"Bruno Sohn","address":"21 rue du Gén. -de-Gaulle","city":"LA-WANTZENAU","zipcode":"67610"},{"name":"Aux Terrasses","star":"1 étoile","chef":"Jean-Michel Carrette","address":"18 av. du 23-Janvier","city":"Tournus","zipcode":"71700"},{"name":"Garance","star":"1 étoile","chef":"Guillaume Iskandar","address":"34 r. St-Dominique","city":"Paris","zipcode":"75007"},{"name":"Garopapilles","star":"1 étoile","chef":"Tanguy Laviale","address":"62 r. Abbé-de-L'Epée","city":"Bordeaux","zipcode":"33000"},{"name":"L'Arnsbourg","star":"1 étoile","chef":"Fabien Mengus","address":"Untermuhlthal","city":"Baerenthal","zipcode":"57230"},{"name":"Le Bouche à Oreille","star":"1 étoile","chef":"Aymeric Dreux","address":"11 r. de la Chapelle","city":"Boutervilliers","zipcode":"91150"},{"name":"L'Atelier Yssoirien","star":"1 étoile","chef":"Dorian Van Bronkhorst","address":"39 Boulevard Triozon-Bayle","city":"Issoire","zipcode":"63500"},{"name":"Le Bénaton","star":"1 étoile","chef":"Keishi Sugimura","address":"25 Rue du Faubourg-Bretonnière","city":"BEAUNE","zipcode":"21200"},{"name":"Azimut","star":"1 étoile","chef":"François Moureaux","address":"273 r. de la Madelon","city":"Courchevel-Saint-Bon","zipcode":"73120"},{"name":"Les Genêts","star":"1 étoile","chef":"Nicolas Coutand","address":"21 bis Rue de l'Océan","city":"Brem-sur-Mer","zipcode":"85470"},{"name":"Ivan Vautier","star":"1 étoile","chef":"Ivan Vautier","address":"3 avenue Henry-Chéron","city":"Caen","zipcode":"14000"},{"name":"Le Quincangrogne","star":"1 étoile","chef":"Franck Charpentier","address":"7 Rue de l'Abreuvoir","city":"Dampmart","zipcode":"77400"},{"name":"Le Lièvre Gourmand","star":"1 étoile","chef":"Tristan Robreau","address":"28 quai du Châtelet","city":"Orléans","zipcode":"45000"},{"name":"Auberge Le Prieuré","star":"1 étoile","chef":"Benjamin Toursel","address":"4 Grand'Rue","city":"Moirax","zipcode":"47310"},{"name":"Aux Anges","star":"1 étoile","chef":"Marco Viganò","address":"6 Place Georges Clemenceau","city":"Roanne","zipcode":"42300"},{"name":"Le Violon d'Ingres","star":"1 étoile","chef":"Christian Constant","address":"135 route St-Dominique","city":"Paris","zipcode":"75007"},{"name":"Le Montgomerie","star":"2 étoiles","chef":"","address":"356 rte de l'Altiport","city":"Courchevel 1850","zipcode":"73120"},{"name":"Gill","star":"2 étoiles","chef":"Gilles Tournadre","address":"9 quai de la Bourse","city":"Rouen","zipcode":"76000"},{"name":"Restaurant du Palais Royal","star":"1 étoile","chef":"Philip Chronopoulos","address":"110 Galerie de Valois - Jardin du Palais Royal","city":"Paris 01","zipcode":"75001"},{"name":"La Table de l'Espadon","star":"2 étoiles","chef":"Le Chef Nicolas Sale","address":"15 Place Vendôme","city":"Paris","zipcode":"75001"},{"name":"Rodolphe","star":"1 étoile","chef":"Rodolphe Pottier","address":"35 r. Percière","city":"Rouen","zipcode":"76000"},{"name":"Alléno Paris au Pavillon Ledoyen","star":"3 étoiles","chef":"Yannick Alléno","address":"8 avenue Dutuit","city":"Paris","zipcode":"75008"},{"name":"Château de Courban","star":"1 étoile","chef":"Takashi Kinoshita","address":"7 rue du Lavoir","city":"Courban","zipcode":"21520"},{"name":"La Vague d'Or","star":"3 étoiles","chef":"Arnaud Donckele","address":"Plage de Bouillabaisse","city":"Saint-Tropez","zipcode":"83990"},{"name":"Carré des Feuillants","star":"2 étoiles","chef":"Alain Dutournier","address":"14 rue de Castiglione","city":"Paris 01","zipcode":"75001"},{"name":"Le Musigny","star":"1 étoile","chef":"Emmanuel Hernandez","address":"90 Avenue de Liege","city":"Valenciennes","zipcode":"59300"},{"name":"Qui plume la Lune","star":"1 étoile","chef":"Jacky Ribault","address":"50 r. Amelot","city":"Paris 11","zipcode":"75011"},{"name":"Têtedoie","star":"1 étoile","chef":"Christian Têtedoie","address":"4 rue du Professeur Pierre MARION","city":"Lyon 05","zipcode":"69005"},{"name":"Le St-Placide","star":"1 étoile","chef":"Luc Mobihan","address":"6 place du poncel","city":"Saint-Malo","zipcode":"35400"},{"name":"Le Quinzième - Cyril Lignac","star":"1 étoile","chef":"Cyril Lignac","address":"14 rue Cauchy","city":"Paris","zipcode":"75015"},{"name":"Auberge de l'Abbaye","star":"1 étoile","chef":"Ivan Lavaux","address":"47 place des anciens Combattants","city":"Ambronay","zipcode":"01500"},{"name":"Le Pot d'Étain","star":"1 étoile","chef":"Philippe Zeiger","address":"4 av. de la République","city":"Danjoutin","zipcode":"90400"},{"name":"U Santa Marina","star":"1 étoile","chef":"","address":"Marina di Santa Giulia","city":"Porto-Vecchio","zipcode":"20137"},{"name":"Allium","star":"1 étoile","chef":"Lionel Hénaff","address":"88 bd de Créac'h-Gwen","city":"Quimper","zipcode":"29000"},{"name":"Domaine des Séquoias","star":"1 étoile","chef":"Eric Jambon","address":"54 Vie-de-Boussieu","city":"Ruy","zipcode":"38300"},{"name":"Dan B. - La Table de Ventabren","star":"1 étoile","chef":"Dan Bessoudo","address":"r. F. -Mistral","city":"Ventabren","zipcode":"13122"},{"name":"Le Magasin aux Vivres","star":"1 étoile","chef":"Christophe Dufossé","address":"5 Avenue Ney","city":"Metz","zipcode":"57000"},{"name":"Château de Mercuès","star":"1 étoile","chef":"Julien Poisot","address":"Route du Château","city":"Mercuès","zipcode":"46090"},{"name":"Flocons de Sel","star":"3 étoiles","chef":"Emmanuel Renaut","address":"1775 rte du Leutaz","city":"Megève","zipcode":"74120"},{"name":"Apicius","star":"1 étoile","chef":"","address":"20 r. d'Artois","city":"Paris","zipcode":"75008"},{"name":"L'Atelier de Gaztelur","star":"1 étoile","chef":"Alexandre Bousquet","address":"Chemin de Gastelhur","city":"Arcangues","zipcode":"64200"},{"name":"L'Émulsion","star":"1 étoile","chef":"Romain Hubert","address":"57 rte de Lyon","city":"Saint-Alban-de-Roche","zipcode":"38080"},{"name":"Paul Bocuse","star":"3 étoiles","chef":"Paul BOCUSE","address":"40 Rue de la Plage","city":"Collonges-au-Mont-d'Or","zipcode":"69660"},{"name":"Pertinence","star":"1 étoile","chef":"Kwen Liew et Ryunosuke Naito","address":"29 r. de l'Exposition","city":"Paris","zipcode":"75007"},{"name":"Hostellerie du Rosenmeer","star":"1 étoile","chef":"Hubert Maetz","address":"45 avenue de la Gare","city":"ROSHEIM","zipcode":"67560"},{"name":"Serge Vieira","star":"2 étoiles","chef":"","address":"Château du Couffour","city":"Chaudes-Aigues","zipcode":"15110"},{"name":"La Table de Nans","star":"1 étoile","chef":"Nans Gaillard","address":"corniche du Liouquet","city":"La Ciotat","zipcode":"13600"},{"name":"Le Saison","star":"1 étoile","chef":"David Etcheverry","address":"1 imp. du Vieux-Bourg","city":"Saint-Grégoire","zipcode":"35760"},{"name":"Le Moulin des Quatre Saisons","star":"1 étoile","chef":"Camille Constantin","address":"r. Gallieni","city":"La Flèche","zipcode":"72200"},{"name":"La Coopérative","star":"1 étoile","chef":"LEMAL Laurent","address":"2A Route de Caladroy","city":"Bélesta","zipcode":"66720"},{"name":"Initial","star":"1 étoile","chef":"Yohann Lemonnier","address":"24 Rue Saint-Manvieu","city":"Caen","zipcode":"14000"},{"name":"La Cachette","star":"1 étoile","chef":"Masashi Ijichi","address":"Rue des Cévennes","city":"Valence","zipcode":"26000"},{"name":"Ze Kitchen Galerie","star":"1 étoile","chef":"William Ledeuil","address":"4 r. des Grands-Augustins","city":"Paris","zipcode":"75006"},{"name":"La Côte Saint-Jacques","star":"2 étoiles","chef":"Jean-Michel Lorain","address":"14 faubourg de Paris","city":"Joigny","zipcode":"89300"},{"name":"L'Arôme","star":"1 étoile","chef":"BOULLAULT THOMAS","address":"3 rue St-Philippe-du-Roule","city":"Paris 08","zipcode":"75008"},{"name":"Avel Vor","star":"1 étoile","chef":"Patrice Gahinet","address":"25 r. de Locmalo","city":"Port-Louis","zipcode":"56290"},{"name":"Le Prince Noir - Vivien Durand","star":"1 étoile","chef":"Durand Vivien","address":"1 rue du Prince Noir","city":"Lormont","zipcode":"33310"},{"name":"L'Amaryllis","star":"1 étoile","chef":"Cédric Burtin","address":"chemin de Martorey","city":"Saint-Rémy","zipcode":"71100"},{"name":"Auberge St-Walfrid","star":"1 étoile","chef":"Stephan Schneider","address":"58 r. de Grosbliederstroff","city":"Sarreguemines","zipcode":"57200"},{"name":"Le Jardin des Remparts","star":"1 étoile","chef":"Christophe Bocquillon","address":"10 rue Hôtel-Dieu","city":"Beaune","zipcode":"21200"},{"name":"1217","star":"1 étoile","chef":"Jean-Alexandre OUARATTA","address":"le bourg","city":"Bagnols","zipcode":"69620"},{"name":"114, Faubourg","star":"1 étoile","chef":"Loïc Dantec","address":"114 r. Fg St-Honoré","city":"Paris 08","zipcode":"75008"},{"name":"Sylvestre","star":"2 étoiles","chef":"Sylvestre Wahid","address":"79 rue St-Dominique","city":"Paris","zipcode":"75007"},{"name":"Hostellerie de Plaisance","star":"2 étoiles","chef":"Ronan Kervarrec","address":"5 place du Clocher","city":"Saint-Emilion","zipcode":"33330"},{"name":"Christophe Bacquié","star":"3 étoiles","chef":"Christophe Bacquié","address":"Hotel du Castellet Route des Hauts du Camp","city":"Le Castellet","zipcode":"83330"},{"name":"Le Petit Hôtel du Grand Large","star":"1 étoile","chef":"Hervé Bourdon","address":"11 quai St-Ivy","city":"Portivy","zipcode":"56510"},{"name":"Auberge La Pomme d'Api","star":"1 étoile","chef":"Jérémie Le Calvez","address":"49 r. Verderel","city":"Saint-Pol-de-Léon","zipcode":"29250"},{"name":"La Ville Blanche","star":"1 étoile","chef":"Jean-Yves Jaguin","address":"La Ville Blanche","city":"Rospez","zipcode":"22300"},{"name":"Clovis","star":"1 étoile","chef":"Julien Bousseau","address":"21 Grand-Rue","city":"Tourrettes-sur-Loup","zipcode":"06140"},{"name":"Saturne","star":"1 étoile","chef":"Sven Chartier","address":"17 r. N.-D.-des-Victoires","city":"Paris","zipcode":"75002"},{"name":"L'Étang du Moulin","star":"1 étoile","chef":"Jacques Barnachon","address":"5 chemin de l'Etang du Moulin","city":"Bonnétage","zipcode":"25210"},{"name":"La Barbacane","star":"1 étoile","chef":"RYON Jérôme","address":"Place Auguste-Pierre-Pont","city":"Carcassonne","zipcode":"11000"},{"name":"Le Clarence","star":"2 étoiles","chef":"Christophe Pelé","address":"31 Avenue Franklin Delano Roosevelt","city":"Paris 08","zipcode":"75008"},{"name":"1920","star":"2 étoiles","chef":"Julien Gatillon","address":"373 chemin des follières","city":"Megève","zipcode":"74120"},{"name":"ES","star":"1 étoile","chef":"Takayuki Honjo","address":"91 r. de Grenelle","city":"Paris","zipcode":"75007"},{"name":"La Table de Patrick Raingeard","star":"1 étoile","chef":"Patrick RAINGEARD","address":"1312 av. Raymond-Poincaré","city":"EZE-BORD-DE-MER","zipcode":"06360"},{"name":"Le Taillevent","star":"2 étoiles","chef":"Alain Solivérès","address":"15 Rue Lamennais","city":"Paris","zipcode":"75008"},{"name":"Pur' - Jean-François Rouquette","star":"1 étoile","chef":"ROUQUETTE Jean-François","address":"5 r. de la Paix","city":"Paris 02","zipcode":"75002"},{"name":"Toya","star":"1 étoile","chef":"Loïc Villemin","address":"av. Jean-Monnet","city":"Faulquemont","zipcode":"57380"},{"name":"Mirazur","star":"2 étoiles","chef":"Mauro Colagreco","address":"30, Avenue Aristide Briand","city":"Menton","zipcode":"06500"},{"name":"L'Oustau de Baumanière","star":"2 étoiles","chef":"Jean-André Charial","address":"Village des Baux-de-Provence","city":"Les Baux-de-Provence","zipcode":"13520"},{"name":"La Lorraine","star":"1 étoile","chef":"Lucien Keff","address":"80 rue Principale","city":"Zoufftgen","zipcode":"57330"},{"name":"Hélène Darroze","star":"1 étoile","chef":"Hélène Darroze","address":"4 rue d'Assas","city":"Paris 06","zipcode":"75006"},{"name":"Les Trois Dômes","star":"1 étoile","chef":"","address":"20 quai Gailleton","city":"Lyon","zipcode":"69002"},{"name":"Le Chiquito","star":"1 étoile","chef":"Alain Mihura","address":"3 r. de l'Oise, La Bonneville","city":"Méry-sur-Oise","zipcode":"95540"},{"name":"Le Favre d'Anne","star":"1 étoile","chef":"Pascal Favre d'Anne","address":"21 bd du Mar.-Foch","city":"Angers","zipcode":"49000"},{"name":"Assa","star":"1 étoile","chef":"Fumiko et Anthony Maubert","address":"189 Quai Ulysse Besnard","city":"Blois","zipcode":"41000"},{"name":"G.a. au Manoir de Rétival","star":"1 étoile","chef":"David Goerne","address":"Corniche de Rétival","city":"Caudebec-en-Caux","zipcode":"76490"},{"name":"L'Océan","star":"1 étoile","chef":"","address":"43 bd Thiers","city":"Saint-Jean-de-Luz","zipcode":"64500"},{"name":"Le Cloître","star":"1 étoile","chef":"Jerome Roy","address":"Le Cloitre","city":"Mane","zipcode":"04300"},{"name":"Le Hittau","star":"1 étoile","chef":"Yannick Duc","address":"1 rue du Nouaou","city":"SAINT-VINCENT-DE-TYROSSE","zipcode":"40230"},{"name":"Tour d'Argent","star":"1 étoile","chef":"","address":"15 quai de la Tournelle","city":"Paris","zipcode":"75005"},{"name":"Yoann Conte","star":"2 étoiles","chef":"Yoann CONTE","address":"13 Vieille-Route-des-Pensières","city":"Veyrier-du-Lac","zipcode":"74290"},{"name":"Astrance","star":"3 étoiles","chef":"Pascal Barbot","address":"4 r. Beethoven","city":"Paris","zipcode":"75016"},{"name":"Le Mascaret","star":"1 étoile","chef":"Philippe Hardy","address":"1 r. de Bas","city":"Blainville-sur-Mer","zipcode":"50560"},{"name":"La Liégeoise","star":"1 étoile","chef":"Benjamin Delpierre","address":"digue de mer","city":"Wimereux","zipcode":"62930"},{"name":"Maison Kieny","star":"1 étoile","chef":"Jean-Marc KIENY","address":"7 Rue du Général de Gaulle","city":"Riedisheim","zipcode":"68400"},{"name":"Auberge du Vert Mont","star":"1 étoile","chef":"Florent Ladeyn","address":"1318 r. du Mont-Noir","city":"Boeschepe","zipcode":"59299"},{"name":"Le Candille","star":"1 étoile","chef":"Xavier Burelle","address":"bd C. Rebuffel","city":"Mougins","zipcode":"06250"},{"name":"Les Pêcheurs","star":"1 étoile","chef":"Nicolas RONDELLI","address":"10 boulevard du Maréchal-Juin","city":"Antibes","zipcode":"06600"},{"name":"Skab","star":"1 étoile","chef":"Alban BARBETTE et Damien SANCHEZ","address":"7 Rue de la République","city":"nimes","zipcode":"30000"},{"name":"Le St-Martin","star":"1 étoile","chef":"Olivier Prévôt-Carme","address":"1 r. du Gén.-Leclerc","city":"Montbéliard","zipcode":"25200"},{"name":"Le Pêché Gourmand","star":"1 étoile","chef":"Sharon et Jimmy Frannais","address":"2 rte de Gap","city":"Briançon","zipcode":"05100"},{"name":"La Robe","star":"1 étoile","chef":"Xavier Giraudet","address":"3 pl. Reveillère-Lepeaux","city":"Montaigu","zipcode":"85600"},{"name":"Mère Brazier","star":"2 étoiles","chef":"Mathieu Viannay","address":"12 rue Royale","city":"LYON","zipcode":"69001"},{"name":"Pertica","star":"1 étoile","chef":"Guillaume Foucault","address":"15 pl. de la République","city":"Vendôme","zipcode":"41100"},{"name":"Le Vivier","star":"1 étoile","chef":"ROMAIN GANDOLPHE","address":"800 cours F. Peyre (rte de Carpentras)","city":"L'Isle-sur-la-Sorgue","zipcode":"84800"},{"name":"La Table de Franck Putelat","star":"2 étoiles","chef":"Mr Franck PUTELAT","address":"80 chemin des Anglais","city":"Carcassonne","zipcode":"11000"},{"name":"Le Grand Cap","star":"1 étoile","chef":"Erwan Houssin","address":"chemin du Phare","city":"Leucate","zipcode":"11370"},{"name":"L'Axel","star":"1 étoile","chef":"Kunihisa Goto","address":"43 r. de France","city":"Fontainebleau","zipcode":"77300"},{"name":"Château de Mirambeau","star":"1 étoile","chef":"","address":"1 Avenue des Comtes Duchatel","city":"Mirambeau","zipcode":"17150"},{"name":"Le Gourmet de Sèze","star":"1 étoile","chef":"Bernard Mariller","address":"125 Rue de Sèze","city":"Lyon","zipcode":"69006"},{"name":"Le Carmin","star":"1 étoile","chef":"Christophe Quéant","address":"4B Place Carnot","city":"Beaune","zipcode":"21200"},{"name":"SEPT","star":"1 étoile","chef":"Guillaume Momboisse","address":"7 pl. St-Sernin","city":"Toulouse","zipcode":"31000"},{"name":"Le Saint-Estève","star":"1 étoile","chef":"Mathias Dandine","address":"2250 route cézanne D17","city":"Le Tholonet","zipcode":"13100"},{"name":"I Salti","star":"1 étoile","chef":"David Doury","address":"route du Reginu","city":"Belgodère","zipcode":"20226"},{"name":"Auberge du Vieux Puits","star":"3 étoiles","chef":"Gilles Goujon","address":"5 Avenue Saint-Victor","city":"Fontjoncouse","zipcode":"11360"},{"name":"AM par Alexandre Mazzia","star":"1 étoile","chef":"Alexandre Mazzia","address":"9 rue François Rocca","city":"Marseille","zipcode":"13008"},{"name":"La Fourchette du Printemps","star":"1 étoile","chef":"Nicolas Mouton","address":"30 r. du Printemps","city":"Paris","zipcode":"75017"},{"name":"L'O des Vignes","star":"1 étoile","chef":"Sébastien Chambru","address":"r. du Bourg","city":"Fuissé","zipcode":"71960"},{"name":"Les Cèdres","star":"2 étoiles","chef":"Jacques Bertrand","address":"25 Rue Henri MACHON","city":"Granges-les-Beaumont","zipcode":"26600"},{"name":"Auberge St-Laurent","star":"1 étoile","chef":"Laurent Arbeit","address":"1 rue Fontaine","city":"Sierentz","zipcode":"68510"},{"name":"Le Sénéchal","star":"1 étoile","chef":"Michel Truchon","address":"Sauveterre de Rouergue","city":"Sauveterre-de-Rouergue","zipcode":"12800"},{"name":"Chapelle Saint-Martin","star":"1 étoile","chef":"Gilles Dudognon","address":"33, Saint Martin du Fault","city":"Nieul","zipcode":"87510"},{"name":"Le Jasmin","star":"1 étoile","chef":"Michel Vico","address":"Lieu-dit Lalande","city":"Saint-Sylvestre-sur-Lot","zipcode":"47140"},{"name":"La Grenouillère","star":"2 étoiles","chef":"Alexandre Gauthier","address":"19 r. de la Grenouillère","city":"La Madelaine-sous-Montreuil","zipcode":"62170"},{"name":"L'Orangerie","star":"1 étoile","chef":"David Bizet ","address":"31 Avenue George-V","city":"Paris","zipcode":"75008"},{"name":"Les Explorateurs","star":"1 étoile","chef":"Josselin JEANBLANC","address":"place du Slalom","city":"VAL THORENS","zipcode":"73440"},{"name":"La Table d'Uzès","star":"1 étoile","chef":"","address":"18 rue du Docteur Blanchard","city":"Uzès","zipcode":"30700"},{"name":"Shang Palace","star":"1 étoile","chef":"Samuel Lee","address":"10 Avenue d'Iéna","city":"Paris 16","zipcode":"75016"},{"name":"Le Millénaire","star":"1 étoile","chef":"Laurent et Thibault Laplaige","address":"4 rue Bertin","city":"Reims","zipcode":"51100"},{"name":"Le Cinq","star":"3 étoiles","chef":"Christian Le Squer","address":"31 av. George V","city":"Paris 08","zipcode":"75008"},{"name":"Le Saint-James","star":"1 étoile","chef":"Nicolas Magie","address":"3 pl. Camille-Hostein","city":"BOULIAC","zipcode":"33270"},{"name":"La Grange de Belle-Église","star":"1 étoile","chef":"Marc Duval","address":"28 bd René-Aimé-Lagabrielle","city":"Belle-Église","zipcode":"60540"},{"name":"Les Rosiers","star":"1 étoile","chef":"Andrée et Stéphane Rosier","address":"32 av. Beau Soleil","city":"Biarritz","zipcode":"64200"},{"name":"Raphaël Vionnet","star":"1 étoile","chef":"Raphaël Vionnet","address":"43 Avenue du Général Leclerc","city":"Thonon-les-Bains","zipcode":"74200"},{"name":"La Réserve Rimbaud","star":"1 étoile","chef":"Charles Fontes","address":"820 Avenue de Saint-Maur","city":"Montpellier","zipcode":"34000"},{"name":"Les Voiles d'Or","star":"1 étoile","chef":"Tristan Arhan","address":"2 chemin de la Falaise","city":"Dieppe","zipcode":"76200"},{"name":"Apicius","star":"1 étoile","chef":"Arkadiusz Zuchmanski","address":"Marché Saint Pierre 1 étage","city":"Clermont-Ferrand","zipcode":"63000"},{"name":"Grand Hôtel du Lion d'Or","star":"1 étoile","chef":"Didier Clément","address":"69 r. Clemenceau","city":"Romorantin-Lanthenay","zipcode":"41200"},{"name":"Les Clefs d'Argent","star":"1 étoile","chef":"Christophe Dupouy","address":"333 Avenue des Martyrs de la Résistance","city":"Mont-de-Marsan","zipcode":"40000"},{"name":"Le Saint-Martin","star":"1 étoile","chef":"Jean-Luc Lefrançois","address":"Avenue des Templiers","city":"Vence","zipcode":"06140"},{"name":"Flaveur","star":"2 étoiles","chef":"Gaël et Mickaël Tourteaux","address":"25 Rue Gubernatis","city":"Nice","zipcode":"06000"},{"name":"Le Raisin","star":"1 étoile","chef":"Frédéric Michel","address":"2 pl. M. -Poisat","city":"Pont-de-Vaux","zipcode":"01190"},{"name":"Le Figuier de St-Esprit","star":"1 étoile","chef":"Christian Morisset","address":"7, Promenade Amiral de Grasse","city":"Antibes","zipcode":"06600"},{"name":"Agapé","star":"1 étoile","chef":"Yoshitaka Takayanagi","address":"51 rue Jouffroy-d'Abbans","city":"Paris 17","zipcode":"75017"},{"name":"Frédéric Simonin","star":"1 étoile","chef":"FREDERIC SIMONIN","address":"25 rue Bayen","city":"Paris","zipcode":"75017"},{"name":"Jean-Luc Tartarin","star":"2 étoiles","chef":"Jean Luc Tartarin","address":"Square Saint-Roch","city":"Le Havre","zipcode":"76600"},{"name":"Logis de la Cadène","star":"1 étoile","chef":"Alexandre Baumard","address":"Place du Marche au Bois","city":"Saint Emilion","zipcode":"33330"},{"name":"Jean-Claude Leclerc","star":"1 étoile","chef":"Jean-Claude Leclerc","address":"12 rue St-Adjutor","city":"Clermont-Ferrand","zipcode":"63000"},{"name":"Les Ducs de Lorraine","star":"1 étoile","chef":"Stéphane Ringer et Rémi Gornet","address":"5 av. Provence","city":"Épinal","zipcode":"88000"},{"name":"Alexandre","star":"2 étoiles","chef":"Michel Kayser","address":"2 rue Xavier Tronc","city":"Garons","zipcode":"30128"},{"name":"Les Fresques","star":"1 étoile","chef":"Patrice Vander","address":"13 Avenue des Mateirons","city":"Évian-les-Bains","zipcode":"74500"},{"name":"Le Clair de la Plume","star":"1 étoile","chef":"Julien ALLANO, Chef de Cuisine","address":"Place du Mail","city":"Grignan","zipcode":"26230"},{"name":"La Table Breizh Café","star":"1 étoile","chef":"Fumio KUDAKA","address":"7 quai Thomas","city":"Cancale","zipcode":"35260"},{"name":"René et Maxime Meilleur","star":"3 étoiles","chef":"René et Maxime Meilleur","address":"Saint Marcel","city":"Saint-Martin-de-Belleville","zipcode":"73440"},{"name":"Le Meurice Alain Ducasse","star":"2 étoiles","chef":"Alain Ducasse et Jocelyn Herland","address":"228 Rue de Rivoli","city":"Paris","zipcode":"75001"},{"name":"Maison Rostang","star":"2 étoiles","chef":"Nicolas Beaumann","address":"20 rue Rennequin","city":"Paris","zipcode":"75017"},{"name":"Hostellerie Jérôme","star":"2 étoiles","chef":"Bruno Cirino","address":"20 r. Comte de Cessole","city":"La Turbie","zipcode":"06320"},{"name":"La Matelote","star":"1 étoile","chef":"Tony Lestienne","address":"80 Boulevard Ste Beuve","city":"BOULOGNE-SUR-MER","zipcode":"62200"},{"name":"Auberge de l'Ill","star":"3 étoiles","chef":"Marc Haeberlin","address":"2 rue de Collonges-au-Mont d'Or","city":"Illhaeusern","zipcode":"68970"},{"name":"1741","star":"1 étoile","chef":"Fabien Raux","address":"22 Quai des Bateliers","city":"Strasbourg","zipcode":"67000"},{"name":"Dominique Bucaille","star":"1 étoile","chef":"Bucaille Dominique","address":"715 av. des Savels","city":"Manosque","zipcode":"04100"},{"name":"L'Atelier de Joël Robuchon - St-Germain","star":"2 étoiles","chef":"","address":"5 r. de Montalembert","city":"Paris","zipcode":"75007"},{"name":"Xavier Mathieu","star":"1 étoile","chef":"Mr Xavier Mathieu","address":"Route de Murs","city":"Joucas","zipcode":"84220"},{"name":"Les Morainières","star":"2 étoiles","chef":"Michaël Arnoult","address":"route de Marétel","city":"Jongieux","zipcode":"73170"},{"name":"Restaurant du Château","star":"1 étoile","chef":"HABERLAND Cyril","address":"15 avenue des Reynats","city":"Chancelade","zipcode":"24650"},{"name":"La Balette","star":"1 étoile","chef":"Frederic Bacquie","address":"rte de Port-Vendres","city":"Collioure","zipcode":"66190"},{"name":"Loiseau des Ducs","star":"1 étoile","chef":"Louis-Philippe Vigilant","address":"3 Rue Vauban","city":"Dijon","zipcode":"21000"},{"name":"Les Berceaux","star":"1 étoile","chef":"Patrick Michelon","address":"13 rue des Berceaux","city":"Épernay","zipcode":"51200"},{"name":"Anne de Bretagne","star":"2 étoiles","chef":"Mathieu Guibert","address":"163, Boulevard de la Tara","city":"La Plaine-sur-Mer","zipcode":"44770"},{"name":"Les Terraillers","star":"1 étoile","chef":"Michaël Fulci","address":"11 Route Chemin-Neuf","city":"Biot","zipcode":"06410"},{"name":"Manoir de la Boulaie","star":"2 étoiles","chef":"Laurent Saudeau","address":"33 rue Chapelle St-Martin","city":"HAUTE-GOULAINE","zipcode":"44115"},{"name":"Terre-Mer","star":"1 étoile","chef":"Anthony Jéhanno","address":"16 r. du Jeu-de-Paume","city":"Auray","zipcode":"56400"},{"name":"L'Amphitryon","star":"1 étoile","chef":"Olivier Beurné","address":"127 r. du Col. -Müller","city":"Lorient","zipcode":"56100"},{"name":"Gaya Rive Gauche par Pierre Gagnaire","star":"1 étoile","chef":"","address":"44 r. du Bac","city":"Paris","zipcode":"75007"},{"name":"L'Alchémille","star":"1 étoile","chef":"Jérôme Jaegle","address":"53 rte de Lapoutroie","city":"Kaysersberg","zipcode":"68240"},{"name":"Au 14 Février","star":"1 étoile","chef":"","address":"2 r. du Portail","city":"Saint-Valentin","zipcode":"36100"},{"name":"Mariottat","star":"1 étoile","chef":"Éric Mariottat","address":"25 r. L.-Vivent","city":"Agen","zipcode":"47000"},{"name":"La Bonne Étape","star":"1 étoile","chef":"Jany Gleize","address":"chemin du lac","city":"Château-Arnoux","zipcode":"04160"},{"name":"Michel Chabran - La Grande Table","star":"1 étoile","chef":"Michel Chabran","address":"29 Avenue du Quarante-Cinquième Parallèle","city":"Pont-de-l'Isère","zipcode":"26600"},{"name":"La Palmeraie","star":"1 étoile","chef":"Jimmy Coutel","address":"81 Boulevard de Gigaro","city":"La Croix-Valmer","zipcode":"83420"},{"name":"Hostellerie de Levernois","star":"1 étoile","chef":"","address":"Rue du Golf","city":"Levernois","zipcode":"21200"},{"name":"Takao Takano","star":"2 étoiles","chef":"Takao Takano","address":"33 Rue Malesherbes","city":"Lyon 06","zipcode":"69006"},{"name":"Cayola","star":"1 étoile","chef":"","address":"76 promenade de Cayola","city":"Talmont-Saint-Hilaire","zipcode":"85180"},{"name":"Le Domaine du Colombier","star":"1 étoile","chef":"Cyril Fressac","address":"270 Chemin de Malombre","city":"Malataverne","zipcode":"26780"},{"name":"Le Refuge des Gourmets","star":"1 étoile","chef":"Jean-Marie et Hubert Chanove","address":"90 route des Framboises","city":"Machilly","zipcode":"74140"},{"name":"La Table d'Eugène","star":"1 étoile","chef":"Geoffroy Maillard","address":"18 r. Eugène-Sue","city":"Paris","zipcode":"75018"},{"name":"Georges Blanc","star":"3 étoiles","chef":"Georges BLANC","address":"pl. du Marché","city":"Vonnas","zipcode":"01540"},{"name":"Il Cortile","star":"1 étoile","chef":"Stefano D'Onghia","address":"11 r. des Franciscains","city":"Mulhouse","zipcode":"68100"},{"name":"Maison Clovis","star":"1 étoile","chef":"Clovis Khoury","address":"19 bd Brotteaux","city":"Lyon","zipcode":"69006"},{"name":"Le Vivarais","star":"1 étoile","chef":"POLLY STEPHANE","address":"5 avenue Expilly","city":"VALS-LES-BAINS","zipcode":"07600"},{"name":"Passage 53","star":"2 étoiles","chef":"Shinichi Sato","address":"53 passage des Panoramas","city":"Paris","zipcode":"75002"},{"name":"Le Colombier","star":"1 étoile","chef":"Laurent Kleczewski","address":"r. Loucheur","city":"Offranville","zipcode":"76550"},{"name":"Auberge La Fenière","star":"1 étoile","chef":"Reine Sammut","address":"D943","city":"Cadenet","zipcode":"84160"},{"name":"Auguste","star":"1 étoile","chef":"Gaël Orieux","address":"54 r. Bourgogne","city":"Paris 07","zipcode":"75007"},{"name":"L'Atelier du Peintre","star":"1 étoile","chef":"Loïc Lefebvre","address":"1 Rue Schongauer","city":"Colmar","zipcode":"68000"},{"name":"La Chassagnette","star":"1 étoile","chef":"","address":"route du Sambuc","city":"Arles","zipcode":"13200"},{"name":"Cyril Attrazic","star":"1 étoile","chef":"ATTRAZIC Cyril","address":"10 rte du Languedoc","city":"Aumont-Aubrac","zipcode":"48130"},{"name":"Roscanvec","star":"1 étoile","chef":"Thierry Seychelles","address":"17 r. des Halles","city":"Vannes","zipcode":"56000"},{"name":"Pont de l'Ouysse","star":"1 étoile","chef":"Daniel et Stéphane Chambon","address":"D23","city":"Lacave","zipcode":"46200"},{"name":"La Madeleine","star":"1 étoile","chef":"Patrick Gauthier","address":"1 Rue Alsace-Lorraine","city":"Sens","zipcode":"89100"},{"name":"La Bastide de Moustiers","star":"1 étoile","chef":"Frédéric Garnier","address":"Parc naturel régional du Verdon, Chemin de Quinson","city":"Moustiers-Sainte-Marie","zipcode":"04360"},{"name":"Alan Geaam","star":"1 étoile","chef":"Alan Geaam","address":"19 Rue Lauriston","city":"Paris","zipcode":"75016"},{"name":"Aigue Marine","star":"1 étoile","chef":"LAISNEY Stanislas","address":"5 r. M. -Berthelot","city":"Tréguier","zipcode":"22220"},{"name":"Auberge Tiegezh","star":"1 étoile","chef":"Baptiste Denieul","address":"7 Place de la Gare","city":"Guer","zipcode":"56380"},{"name":"Le Grand Cerf","star":"1 étoile","chef":"Dominique Giraudeau et Pascal Champion","address":"50 rte Nationale","city":"Montchenot","zipcode":"51500"},{"name":"L'Ambroisie","star":"3 étoiles","chef":"Bernard Pacaud","address":"9 Place des Vosges","city":"Paris","zipcode":"75004"},{"name":"Le Jardin de Benjamin","star":"1 étoile","chef":"Benjamin Collombat","address":"Route de Salernes","city":"Lorgues","zipcode":"83510"},{"name":"Les Hautes Roches","star":"1 étoile","chef":"Didier Edon","address":"86 quai de Loire","city":"Rochecorbon","zipcode":"37210"},{"name":"La Gouesnière","star":"1 étoile","chef":"Valade Olivier","address":"1 Le Limonay","city":"Saint-Méloir-des-Ondes","zipcode":"35400"},{"name":"Le Pré du Moulin","star":"1 étoile","chef":"Caroline et Pascal Alonso","address":"rte de Ste-Cécile-les-Vignes","city":"Sérignan-du-Comtat","zipcode":"84830"},{"name":"Auberge à la Bonne Idée","star":"1 étoile","chef":"Yves Giustinani","address":"3 rue des Meuniers","city":"SAINT-JEAN-AUX-BOIS","zipcode":"60350"},{"name":"Domaine de Rochevilaine","star":"1 étoile","chef":"Maxime Nouail","address":"à la Pointe de Pen Lan","city":"Billiers","zipcode":"56190"},{"name":"Villa Archange","star":"2 étoiles","chef":"Bruno Oger","address":"Rue de l'Ouest","city":"Le Cannet","zipcode":"06110"},{"name":"Villa René Lalique","star":"2 étoiles","chef":"Jean-Georges Klein","address":"18 Rue Bellevue","city":"Wingen-sur-Moder","zipcode":"67290"},{"name":"Le Relais des Moines","star":"1 étoile","chef":"Sébastien Sanjou","address":"route de Ste-Roseline","city":"Les Arcs","zipcode":"83460"},{"name":"La Villa Madie","star":"2 étoiles","chef":"Dimitri Droisneau","address":"av. du Revestel","city":"Cassis","zipcode":"13260"},{"name":"Le Pavillon des Boulevards","star":"1 étoile","chef":"Thomas Morel","address":"120 r. Croix-de-Seguey","city":"Bordeaux","zipcode":"33000"},{"name":"La Grande Cascade","star":"1 étoile","chef":"Frédéric Robert","address":"Carrefour de Longchamp","city":"Paris","zipcode":"75016"},{"name":"MaSa","star":"1 étoile","chef":"Hervé Rodriguez","address":"112 avenue Victor-Hugo","city":"Boulogne-Billancourt","zipcode":"92100"},{"name":"Antoine","star":"1 étoile","chef":"Thibault Sombardier","address":"10 av. de New-York","city":"Paris 16","zipcode":"75116"},{"name":"En Pleine Nature","star":"1 étoile","chef":"Sylvain Joffre","address":"6 pl. de la Mairie","city":"Fonsegrives","zipcode":"31130"},{"name":"Ken Kawasaki","star":"1 étoile","chef":"","address":"15 r. Caulaincourt","city":"Paris","zipcode":"75018"},{"name":"La Voile","star":"1 étoile","chef":"Eric Canino","address":"chemin de la Quessine","city":"Ramatuelle","zipcode":"83350"},{"name":"Alliance","star":"1 étoile","chef":"Toshitaka Omiya","address":"5 Rue de Poissy","city":"Paris","zipcode":"75005"},{"name":"Aux Pesked","star":"1 étoile","chef":"Mathieu Aumont","address":"59 Rue du Légué","city":"Saint-Brieuc","zipcode":"22000"},{"name":"Guy Savoy","star":"3 étoiles","chef":"Guy SAVOY","address":"Monnaie de Paris11 Quai de Conti","city":"Paris","zipcode":"75006"},{"name":"Le Haut-Allier","star":"1 étoile","chef":"Philippe Brun","address":"LE PONT D ALLEYRAS","city":"Alleyras","zipcode":"43580"},{"name":"La Table des Blot - Auberge du Château","star":"1 étoile","chef":"Christophe Blot","address":"1 Grande-Rue","city":"Dampierre-en-Yvelines","zipcode":"78720"},{"name":"La Rastègue","star":"1 étoile","chef":"Jérôme Masson","address":"48 bd du Levant","city":"Bormes-les-Mimosas","zipcode":"83230"},{"name":"Stéphane Tournié - Les Jardins de l'Opéra","star":"1 étoile","chef":"Stéphane Tournié","address":"1 place du Capitole","city":"Toulouse","zipcode":"31000"},{"name":"Sur Mesure par Thierry Marx","star":"2 étoiles","chef":"Thierry Marx","address":"251 r. St-Honoré","city":"Paris 01","zipcode":"75001"},{"name":"Le Restaurant","star":"1 étoile","chef":"Julien Montbabut","address":"13 rue des Beaux-Arts","city":"Paris 06","zipcode":"75006"},{"name":"Jean Chauvel","star":"1 étoile","chef":"","address":"33 av. Général-Leclerc","city":"Boulogne-Billancourt","zipcode":"92100"},{"name":"Maison Lameloise","star":"3 étoiles","chef":"Eric Pras","address":"36 pl. d'Armes","city":"Chagny","zipcode":"71150"},{"name":"La Bergerie","star":"1 étoile","chef":"Cyrille Zen","address":"D999","city":"Sarpoil","zipcode":"63490"},{"name":"Épicure","star":"3 étoiles","chef":"Eric Frechon","address":"112 r. Fg St-Honoré","city":"Paris 08","zipcode":"75008"},{"name":"Le Belrose","star":"1 étoile","chef":"Pietro Volonté","address":"Boulevard des Crêtes","city":"Gassin","zipcode":"83580"},{"name":"L'Amphitryon","star":"1 étoile","chef":"Yannick Delpech","address":"chemin de Gramont","city":"Colomiers","zipcode":"31770"},{"name":"Thierry Drapeau","star":"2 étoiles","chef":"THIERRY DRAPEAU","address":"La Chabotterie","city":"Saint-Sulpice-le-Verdon","zipcode":"85260"},{"name":"Dyades au Domaine des Étangs","star":"1 étoile","chef":"","address":"Les Etangs","city":"MASSIGNAC","zipcode":"16310"},{"name":"Hexagone","star":"1 étoile","chef":"Mathieu Pacaud","address":"85 Avenue Kléber","city":"Paris","zipcode":"75016"},{"name":"Atmosphères","star":"1 étoile","chef":"Alain Périllat-Mercerot","address":"618 Route des Tournelles","city":"Le Bourget-du-Lac","zipcode":"73370"},{"name":"Penati al Baretto","star":"1 étoile","chef":"Alberico Penati","address":"9 rue Balzac","city":"Paris 08","zipcode":"75008"},{"name":"La Galinette","star":"1 étoile","chef":"Christophe Comes","address":"23 r. Jean Payra","city":"Perpignan","zipcode":"66000"},{"name":"Le Jardin des Plumes","star":"1 étoile","chef":"Albert Riera pour Eric Guerin","address":"1 Rue du Milieu","city":"Giverny","zipcode":"27620"},{"name":"Le Gindreau","star":"2 étoiles","chef":"Pascal Bardet","address":"D5","city":"Saint-Médard","zipcode":"46150"},{"name":"Les Prés d'Eugénie - Michel Guérard","star":"3 étoiles","chef":"Michel Guérard","address":"pl. de l'Impératrice","city":"Eugénie-les-Bains","zipcode":"40320"},{"name":"Le Grand Véfour","star":"2 étoiles","chef":"Guy Martin","address":"17 rue de Beaujolais","city":"Paris","zipcode":"75001"},{"name":"Ar Men Du","star":"1 étoile","chef":"Jean Marie Le Guen","address":"47 rue des îles","city":"Névez","zipcode":"29920"},{"name":"L'Escarbille","star":"1 étoile","chef":"Régis Douysset","address":"8 Rue de Vélizy","city":"Meudon","zipcode":"92190"},{"name":"Les Jardins de l'Espadon","star":"1 étoile","chef":"Nicolas Sale","address":"15 place Vendôme","city":"Paris","zipcode":"75001"},{"name":"Restaurant des Rois","star":"1 étoile","chef":"Yannick Franques","address":"5 Boulevard du Maréchal Leclerc","city":"Beaulieu-sur-Mer","zipcode":"06310"},{"name":"Auberge de Clochemerle","star":"1 étoile","chef":"Romain Barthe","address":"Rue Gabriel-Chevallier","city":"VAUX-EN-BEAUJOLAIS","zipcode":"69460"},{"name":"Le Kléber","star":"1 étoile","chef":"Sébastien Bonnet","address":"6 r. A. -Dumont","city":"Crest","zipcode":"26400"},{"name":"Auberge du Cellier","star":"1 étoile","chef":"Pierre-Louis Marin","address":"1 Rue de Sainte-Eugénie","city":"Montner","zipcode":"66720"},{"name":"Château de Sully","star":"1 étoile","chef":"NIcolas FAGES","address":"D6","city":"Sully","zipcode":"14400"},{"name":"L'Aparté","star":"1 étoile","chef":"le Chef Jérémy Morin","address":"21 Rue de l’Europe","city":"MONTRABE","zipcode":"31850"},{"name":"William Frachot","star":"2 étoiles","chef":"William Frachot","address":"5 rue Michelet","city":"DIJON","zipcode":"21000"},{"name":"Vieux Pont","star":"1 étoile","chef":"Nicole Fagegaltier et Bruno Rouquier","address":"","city":"Belcastel","zipcode":"12390"},{"name":"L'Almandin","star":"1 étoile","chef":"Christophe Schmitt","address":"Boulevard de l'Almandin","city":"Saint-Cyprien","zipcode":"66750"},{"name":"Le Moulin du Roc","star":"1 étoile","chef":"Alain Gardillou","address":"Avenue Eugène Le Roy","city":"Champagnac-de-Belair","zipcode":"24530"},{"name":"Le Farçon","star":"1 étoile","chef":"Julien Machet","address":"immeuble la Kalinka","city":"La Tania","zipcode":"73125"},{"name":"Patrick Jeffroy","star":"2 étoiles","chef":"Patrick Jeffroy","address":"20 rue du Kelenn","city":"Carantec","zipcode":"29660"},{"name":"Le Beaulieu","star":"1 étoile","chef":"Olivier Boussard","address":"34 Bis Place République","city":"Le Mans","zipcode":"72000"},{"name":"La Licorne Royale","star":"1 étoile","chef":"Christophe POIRIER","address":"27 Place Isaac Benserade","city":"Lyons-la-Forêt","zipcode":"27480"},{"name":"Benoit","star":"1 étoile","chef":"Fabienne Eymard","address":"20 Rue St-Martin","city":"Paris 04","zipcode":"75004"}]}